HouseNumber,Address,City,State,Country,PostCode,County,Latitude,Longitude,name,,,,
N/A,,Wiley,British Columbia,Canada,V9N 1P9,,67.4155333558306,-126.377694045249,,,,,
N/A,,Marsh lake,Yukon,Canada,Y0B 1T0,,59.9826919636923,-134.179317812668,,,,,
N/A,,Truly,Montana,Canada,T9K 0K4,,64.9714280082563,-111.432358446463,,,,,
N/A,,Sayward,British Columbia,Canada,V0J 2T0,,67.1863708828586,-125.982007122264,Colville Lake,,,,
0,Winter Trl,Kotlik,AK,United States,99620-0316,Wade Hampton,62.6393282110557,-163.556980334003,,,,,
N/A,,Star City,Saskatchewan,Canada,S0J 0Z0,,55.4181346263251,-104.341226464688,,,,,
N/A,,Blair Crossing,Montana,Canada,T0B 0C0,,65.8789526122032,-112.300403496523,,,,,
N/A,,Bergland,Ontario,Canada,P0X 1M0,,50.2171620460992,-94.3826717298093,,,,,
N/A,,Hines Creek,Alberta,Canada,T0H 0G0,,65.0388373933695,-118.595150417946,Hottah Lake,,,,
N/A,,Berylvale,Ontario,Canada,P3P 0B6,,48.4617215739495,-80.9978317362461,,,,,
N/A,,Waldheim,Saskatchewan,Canada,S0K 2T0,,71.0532852389237,-106.62629847051,Zeta Lake,,,,
N/A,,Golden,British Columbia,Canada,V0A 1H2,,67.3746167421593,-116.972026477743,,,,,
N/A,,Broadbent,Ontario,Canada,P2B 3K2,,46.2532547101441,-79.8435816912243,Lake Nipissing,,,,
N/A,,Elmgrove,Ontario,Canada,K7H 3E2,,44.753911028599,-76.2173755618582,Big Rideau Lake,,,,
N/A,,Ferme-Lefebvre,Quebec,Canada,J9E 3H9,,48.5447322578006,-75.948798046286,,,,,
0,,Williamsburg,NM,United States,87901-3520,Sierra,33.0173189157322,-107.28834133199,Caballo Reservoir,,,,
N/A,,Embarcadero Betanga,Nayarit,Mexico,63563,,21.8665114158574,-105.468178441335,,,,,
N/A,,Grouard,Alberta,Canada,X0E 1R0,,64.2393444240798,-116.169489198005,,,,,
N/A,,Waugh,Manitoba,Canada,R0E 2H0,,56.4462013403325,-95.1986619946197,,,,,
N/A,,Clova,Quebec,Canada,G0X 3M0,,60.1101516307403,-75.3578571064422,,,,,
N/A,,Linden Grove,Minnesota,Canada,P8N 2Y5,,50.4541251684402,-92.8722295766169,Lac Seul,,,,
N/A,,Anvil,Michigan,Canada,P0V 1G0,,53.782500353918,-90.0228341889335,Big Trout Lake,,,,
N/A,,Purrington,Washington,Canada,X0E 0S0,,64.5475436651867,-117.767190147039,,,,,
0,,Unity,ME,United States,04441-7206,Piscataquis,46.0061360254171,-69.3409073953785,Chesuncook Lake,,,,
N/A,,Hoosier,Saskatchewan,Canada,S0L 1M0,,54.8963742109842,-109.734065396526,,,,,
N/A,,Ramore,Ontario,Canada,P0K 1R0,,50.3101811102728,-80.3295947587916,,,,,
N/A,,North Battleford,Saskatchewan,Canada,S9A 0Y4,,70.8035172770525,-108.291286977649,,,,,
N/A,,The Glen,Ontario,Canada,K0J 2L0,,51.3559096719081,-76.870625243702,,,,,
N/A,,Stockholm,Saskatchewan,Canada,S0P 0G0,,54.0592026334217,-102.301896818829,,,,,
N/A,,Spruce Lake,Saskatchewan,Canada,S0M 2W0,,59.8071037618583,-109.088930292332,,,,,
N/A,,Outaouais,Quebec,Canada,J0Y 3B0,,56.338905615993,-76.3120324045679,,,,,
0,,Verbena,AL,United States,35046-5200,Coosa,32.9294512237834,-86.5058277331295,Mitchell Lake,,,,
N/A,,Cort,Minnesota,Canada,P0V 1C0,,51.1658976278446,-93.2519446178039,Trout Lake,,,,
N/A,,Sheen-Esher-Aberdeen-et-Malakoff,Quebec,Canada,K0J 1J0,,50.0258253634636,-77.4566813718123,,,,,
N/A,,Botha,Alberta,Canada,X0E 0S0,,69.9280783629629,-112.539754301103,,,,,
N/A,,Coronation,Alberta,Canada,T9K 0G8,,64.2297775899481,-111.442075308444,,,,,
0,Desert Willow Rd,Hatch,NM,United States,87935-9500,Sierra,33.2659094210949,-107.160019253484,Elephant Butte Reservoir,,,,
0,Jeep Trl,Barrow,AK,United States,99649-9800,Kodiak Island,57.6139438326638,-156.778334662235,,,,,
N/A,,Bringakro,Lacs,Cote d'Ivoire,,,6.28316888963397,-5.0873014838046,,,,,
N/A,,Lynn Lake,Manitoba,Canada,R0B 1T0,,54.0649427339008,-101.077189173698,,,,,
N/A,,Bamangaye,Mopti,Mali,58013,,15.3553241057685,-4.14334871102646,Lake Dbo,,,,
N/A,,Pagwa River,Ontario,Canada,P0T 2L0,,52.3334929381124,-85.2138778042046,,,,,
N/A,,Bryson,Quebec,Canada,J0X 1H0,,47.3780200399142,-76.6260718890629,Cabonga Reservoir,,,,
N/A,,Silver Star Mountain,British Columbia,Canada,V1B 3Y9,,63.983689179666,-119.066426084116,,,,,
N/A,,Arbuthnot,Saskatchewan,Canada,S0H 1K0,,50.9464491710679,-106.898092310729,Lake Diefenbaker,,,,
0,,Holy Cross,AK,United States,99770-0080,Northwest Arctic,66.4846068037767,-159.837157728152,,,,,
N/A,,Frontier,Minnesota,Canada,R0B 0T0,,53.8521174699846,-94.2475861769388,Island Lake,,,,
N/A,,Youngstown,Alberta,Canada,T0K 1K0,,69.2068862514903,-111.214346535631,,,,,
N/A,,Vallican,British Columbia,Canada,V1N 4T5,,60.9364317355989,-117.6544824187,,,,,
N/A,,Wilton,North Dakota,Canada,R0M 0K0,,54.2177177158822,-100.78698383198,,,,,
N/A,,Winter,Minnesota,Canada,P0V 3C0,,51.1168860006772,-91.4985303400966,,,,,
N/A,,Rivers Edge Mobile Home Park,Montana,Canada,T8S 1Z7,,60.2308409228643,-115.507797342334,,,,,
N/A,,Granbergsfallet,Jamtland,Sweden,685 33,,63.5702547631096,12.9884142011267,,,,,
N/A,,Lavillette,New Brunswick,Canada,E2A 5P4,,52.7239669527525,-65.312568798211,,,,,
N/A,,Neumühle,Brandenburg,Germany,02979,,51.6306985845855,14.3899242592758,,,,,
N/A,,Clarks Corners,New Brunswick,Canada,E8G 1S8,,52.6827559749541,-66.143612171532,,,,,
N/A,,Bengtsbo,Dalarna,Sweden,733 63,,60.1415014102799,16.3493351459753,,,,,
N/A,,Burchell Lake,Ontario,Canada,P0V 2Z0,,52.7882855145308,-90.5938509113718,North Caribou Lake,,,,
N/A,,Lac-Paradis,Quebec,Canada,J0W 0A3,,48.5672511135262,-75.6112703143838,,,,,
N/A,,Grande Prairie,Alberta,Canada,T8V 2H1,,59.7451401130971,-118.809234491134,,,,,
N/A,,Huta,Warmian-Masurian,Poland,82-316,,54.3853580862836,19.5886556675379,Zalew Wislany,,,,
N/A,,Fort Kent,Alberta,Canada,T9V 3C4,,69.0669161090392,-110.621738485122,,,,,
N/A,,Kearns,Ontario,Canada,P0K 1J0,,48.7016283375618,-79.5713093075662,Lake Abitibi,,,,
N/A,,Hutton,British Columbia,Canada,V0C 1J0,,64.6240783382409,-121.620539969973,,,,,
N/A,,Saunaniemi,Oulu,Finland,83950,,65.9497471847784,29.6251933828163,,,,,
N/A,,Babbitt,Minnesota,Canada,P0V 3B0,,51.9421358310908,-91.9411685599122,,,,,
N/A,,Silverhill,British Columbia,Canada,V2J 6X5,,67.4985440396817,-122.382064522029,,,,,
N/A,,La Loche,Saskatchewan,Canada,S0M 1G0,,69.7523429790653,-109.444192542899,,,,,
N/A,,Göktaş,Isparta,Turkey,32500,,38.059334867307,30.8922457095346,Egridir,,,,
N/A,,Lamèque,New Brunswick,Canada,G4X 6S4,,53.2566188407973,-64.6540022966316,Ossokmanuan Lake,,,,
N/A,,Saint-Gédéon-de-Beauce,Quebec,Canada,G0V 1M0,,52.8299380385199,-70.6348215553681,Lake Naococane,,,,
N/A,,Senneterre,Quebec,Canada,J9P 7C9,,49.7787066787366,-77.2299511143359,,,,,
N/A,,Jim Lake,Quebec,Canada,K0J 1V0,,53.224827515067,-76.7709179971853,Lake Sakami,,,,
N/A,,Blackstone,Maine,Canada,G4Z 3C4,,53.7053769526096,-68.2431122981021,,,,,
N/A,,Uniacke,Quebec,Canada,J0Y 2J0,,47.7974889210769,-77.5206428975598,,,,,
N/A,,Saint-Léonard-de-Portneuf,Quebec,Canada,G8G 1N3,,53.5327323920468,-71.9072209605519,,,,,
N/A,,Cavell,Saskatchewan,Canada,S0M 0P0,,69.2997581336004,-108.592252046549,,,,,
N/A,,Peñasquillo,Nayarit,Mexico,63384,,21.8036646747148,-105.044335174076,,,,,
N/A,,Chemin du Lac Matchi Manitou,Quebec,Canada,J0X 1M0,,47.4792812996476,-77.0334891260633,Dozois Reservoir,,,,
N/A,,Fairford Reserve,Manitoba,Canada,R0C 0X0,,65.7229396248235,-98.6862015630699,,,,,
0,Oleory St,Tolar,TX,United States,79770-0100,Loving,31.9857198321993,-103.934001164167,Red Bluff Lake,,,,
N/A,,Strasbourg,Saskatchewan,Canada,S0G 4V0,,55.116117031888,-104.957650457963,Lac la Ronge,,,,
N/A,,Ma’erjin,Xizang,China,859300,,30.1076767010992,84.8271353005053,,,,,
0,Joe Dugas Rd,Robeline,LA,United States,70645-5308,Cameron,29.9587284527706,-93.3090073678229,,,,,
N/A,,Ouédo-Aguéko,Atlantique,Benin,,,6.42887913256415,2.46564172473807,,,,,
N/A,,Île-à-la-Crosse,Saskatchewan,Canada,X0B 0C0,,69.6238530375723,-107.887638753108,,,,,
N/A,,Alvena,Saskatchewan,Canada,S0J 0A7,,60.0219895746644,-106.014943671535,Scott Lake,,,,
N/A,,Jackhead,Manitoba,Canada,R4H 1C1,,63.3371183744213,-97.314901817731,,,,,
N/A,,Lac-Jolicoeur,Quebec,Canada,J8E 1W3,,50.7917608222602,-74.5416263678537,,,,,
N/A,,Wemindji,Quebec,Canada,K0M 2L1,,51.103050886702,-78.7806291988373,,,,,
N/A,,City of Deer Park,Washington,Canada,V1L 6V9,,64.174878680238,-117.435949737495,,,,,
0,,Shafter,NM,United States,88210-9107,Eddy,32.6826269031835,-104.297942045349,Brantley Lake,,,,
N/A,,Simcoe,North Dakota,Canada,R0M 0A6,,66.4791610674247,-100.859236332062,,,,,
N/A,,Pointe-Lebel,Quebec,Canada,G4Z 3B1,,53.1867073606035,-68.1976089818537,,,,,
N/A,,Nelson,Washington,Canada,V0K 1X1,,60.5521393676286,-121.046738151235,,,,,
N/A,,Ville-Marie,Quebec,Canada,J9V 1M6,,47.2071416641143,-79.4346044433804,,,,,
N/A,,Traynor,Saskatchewan,Canada,S0K 4E0,,69.8093024376653,-108.374720396812,,,,,
N/A,,Viršužiglis,Kauno,Lithuania,53193,,54.8478041300075,24.1800833879428,Kauno marios,,,,
N/A,,Namuqie,Xizang,China,858800,,30.4195554937952,84.0643688555149,,,,,
N/A,,Combermere,Ontario,Canada,J9P 0A9,,47.6347055587731,-77.606278454855,Dozois Reservoir,,,,
N/A,,Baruotawa,Sichuan,China,813500,,34.93613147844,97.6887705754098,Ngoring Hu,,,,
N/A,,Hiawatha Park,Ontario,Canada,J9L 0J3,,49.9370745791334,-75.550046793963,,,,,
526,State Hwy 92,Hyannis,NE,United States,69146-2504,Keith,41.2649602117709,-101.771460328576,Lake C.W. McConaughy,,,,
N/A,,Plön,Schleswig-Holstein,Germany,24306,,54.1249930158357,10.4191820617054,,,,,
N/A,,Yangduqiao,Zhejiang,China,214154,,31.237299038967,120.137632179972,Tai Hu,,,,
N/A,,Turtleford,Saskatchewan,Canada,S0M 2Y0,,70.0293396226962,-108.949546692363,,,,,
N/A,,Rudikovka,Krasnoyarsk,Russia,662693,,67.3407648675391,92.5566187810825,Ozero Severnoye,,,,
N/A,,Sainte-Anne-de-Beaupré,Quebec,Canada,G7B 3P9,,81.800003069153,-70.9353501003392,,,,,
N/A,,Yel’tsovka,Novosibirsk,Russia,632653,,54.3666659642108,82.0083433323359,Novosibirsk Reservoir,,,,
N/A,,Lutsen Mobile Home Park,Minnesota,Canada,X0C 0H0,,66.7086179045238,-90.6610941681589,,,,,
N/A,,Urmatka,Tyumen',Russia,627506,,69.709071452377,70.1640137678175,Ozero Yasaveyto,,,,
N/A,,Pointe du Bois,Manitoba,Canada,R0E 1N0,,54.8508949533424,-95.5541349071413,,,,,
N/A,,Belleterre,Quebec,Canada,J0Z 1L0,,47.615424708446,-78.7031114108404,,,,,
N/A,,Chitek Lake,Saskatchewan,Canada,S0M 2H0,,69.7635288158963,-107.720548857509,,,,,
N/A,,Lac-Saint-Jean,Quebec,Canada,G0W 2G0,,48.6019860805277,-72.0332695941793,Lac St.-Jean,,,,
N/A,,Firesteel,Michigan,Canada,P7A 8C8,,52.9248704695199,-89.2094685015836,,,,,
N/A,,Qiujiahu,Hubei,China,430413,,30.6390039505719,114.592986758721,,,,,
N/A,,Saint-Émile-de-Suffolk,Quebec,Canada,J0T 2X0,,49.9351612123071,-74.9171105671318,,,,,
N/A,,Lac-Clef,Quebec,Canada,J8B 0A9,,49.8515618002017,-74.2188878535198,,,,,
N/A,,Newton,Montana,Canada,X0E 1A0,,64.7266642365463,-108.049301014141,,,,,
N/A,,Pollollo,Los Lagos,Argentina,Z9405,,-50.3181957496884,-73.0350305989512,Lago Argentino,,,,
N/A,,Chute-aux-Outardes,Quebec,Canada,G5N 5L3,,49.5438041052855,-68.3938217213307,,,,,
0,,Natrona,WY,United States,82327-9500,Carbon,42.062245450107,-106.820553408598,Seminoe Reservoir,,,,
2243,Shull Ave,Peak,SC,United States,29054-8616,Lexington,34.0658439365752,-81.3330618832147,Lake Murray,,,,
N/A,,Vanguard,Saskatchewan,Canada,S0N 2V0,,69.6569690018747,-107.299196354009,,,,,
N/A,,Kianta,Oulu,Finland,88730,,65.0139636246268,29.0913571714837,,,,,
N/A,,Stepstone,Ontario,Canada,P7G 2H4,,66.6843328640355,-89.2394974629403,,,,,
N/A,,Mahramkolu,Konya,Turkey,42480,,37.7895501447908,31.5081864241111,Beysehir,,,,
N/A,,McGee,Saskatchewan,Canada,S0K 1L0,,64.6203987866518,-108.24917151339,,,,,
N/A,,Sincorá,Maranhao,Brazil,65763-000,,-3.82926915178385,-44.6527587188526,,,,,
N/A,,Dixon,Michigan,Canada,P0T 1M0,,49.5258478935305,-86.859870705431,Long Lake,,,,
N/A,,Akshatau,Qyzylorda,Kazakhstan,120608,,46.1076916492775,61.6075825658116,,,,,
N/A,,Lac-Caribou,Quebec,Canada,J8E 2K3,,49.6422689058111,-74.6980870985637,,,,,
N/A,,Renville County,North Dakota,Canada,R0B 2E0,,62.3005151007271,-101.655519729526,,,,,
N/A,,Artanish,Gegharkunik,Armenia,1308,,40.378777007041,45.3627400485852,Lake Sevan,,,,
N/A,,Saint Romuald,Quebec,Canada,G7P 2Z5,,50.0985333028651,-71.2384623079011,Lake Peribonca,,,,
N/A,,Hastings,Maine,Canada,G7G 0A6,,53.2411647241229,-70.9944418056121,,,,,
0,Foot Trl,Yakutat,AK,United States,99689-9800,Skagway-Yakutat-Angoon,59.2046875756833,-138.150291662151,,,,,
N/A,,Broadacres,Saskatchewan,Canada,S0N 0M0,,64.6414458217417,-108.976007732887,,,,,
N/A,,Lemberg,Saskatchewan,Canada,S0A 0A2,,69.7916405900374,-103.205476652181,,,,,
0,,Otsego,MN,United States,56359-2247,Mille Lacs,46.2470730634744,-93.6801438300572,Mille Lacs Lake,,,,
N/A,,Bherala,Gujarat,French Southern Territories,,,-49.1416223335431,70.4675903534973,,,,,
N/A,,Saint-François-de-l'Île-d'Orléans,Quebec,Canada,G7B 3P6,,53.1243021656516,-70.8224046630895,,,,,
N/A,,Huoshigou,Henan,China,474571,,32.7869789862517,111.565647199061,Danjiangkou Shuiku,,,,
N/A,,Wrony,Warmian-Masurian,Poland,11-500,,54.1192529153566,21.6932869148186,,,,,
0,Foot Trl,Yakutat,AK,United States,99689-9800,Skagway-Yakutat-Angoon,59.2837243438182,-138.222462872236,,,,,
N/A,,Baden,North Dakota,Canada,S0P 0J0,,57.0213888447477,-101.996172560318,,,,,
N/A,,Virden,Manitoba,Canada,R0M 2C0,,62.3496739099581,-100.940573325406,,,,,
N/A,,Maidstone,Saskatchewan,Canada,S0N 2G0,,64.6464500119029,-109.280482651069,,,,,
N/A,,Pestunovka,Tuva,Mongolia,85125,,50.339617522986,92.7686212422066,Uvs Nuur,,,,
N/A,,Stonington,Michigan,Canada,X0C 0H0,,66.6178065713037,-88.7835283274649,,,,,
0,Love St,Newtok,AK,United States,99563-0340,Wade Hampton,61.528986723515,-164.66223545473,,,,,
N/A,,Bryson,Quebec,Canada,J0X 1H0,,53.8381351739459,-76.6239599814876,Réservoir de La Grande 2,,,,
N/A,,Obedjiwan,Quebec,Canada,G0W 3B0,,49.310078988343,-74.9428075840415,,,,,
0,Foot Trl,Yakutat,AK,United States,99689-9800,Skagway-Yakutat-Angoon,59.4495985294569,-138.03333913232,,,,,
-957,Carmelite St,Waggaman,LA,United States,70072-7661,Jefferson,29.7659199494993,-90.2141822259766,,,,,
N/A,,Nadun,Xizang,China,857800,,29.8637960217706,85.7237917355751,,,,,
N/A,,Herb Lake,Manitoba,Canada,X0C 0A0,,62.3804349612434,-99.77778869846,,,,,
0,Winter Trl,Newtok,AK,United States,99632-0234,Wade Hampton,62.0644350707675,-164.623935841435,,,,,
N/A,,Wasa,British Columbia,Canada,V0B 2E0,,55.4505146803096,-115.73999335434,Lesser Slave Lake,,,,
N/A,,Pukapuka,Îles Tuamotu-Gambier,Canada,Y0B 1H0,,61.3350007637352,-138.792404874444,Kluane Lake,,,,
N/A,,Kerie,Embu,Kenya,,,-0.801145375980354,37.7727773775301,,,,,
N/A,,Glenavon,Saskatchewan,Canada,S4A 2A3,,55.9390119492846,-103.127266718821,,,,,
N/A,,Larkspur,Alberta,Canada,T8T 1T3,,58.6677674077952,-113.761681349236,,,,,
0,Winter Trl,Stebbins,AK,United States,99585-9999,Wade Hampton,62.2351662645039,-162.264835881994,,,,,
N/A,,Moulin-Caron,Quebec,Canada,J9X 5A5,,71.1336466456307,-78.9603238384195,,,,,
N/A,,Baie-Noire,Quebec,Canada,K4K 1W3,,49.4014790498174,-75.1980593119946,,,,,
0,,Richfield,MI,United States,49950-9521,Keweenaw,47.7258112561203,-88.2010638846156,Lake Superior,,,,
N/A,,Lawson,Michigan,Canada,X0C 0H0,,66.7689625505858,-87.1431536965744,,,,,
N/A,,Lipsett,Saskatchewan,Canada,S4R 1X4,,63.1688892757655,-104.677517631008,,,,,
0,,Ono,CA,United States,96091-9601,Trinity,40.9482244109772,-122.67872506813,Clair Engle Lake,,,,
N/A,,Domaine-Beaudry,Quebec,Canada,J0K 3C0,,56.0043607855078,-73.3219756137953,,,,,
0,Winter Trl,Lower Kalskag,AK,United States,99607-9998,Bethel,61.6259797034049,-160.401828452776,,,,,
N/A,,Lipsett,Saskatchewan,Canada,S4X 0E8,,69.8010602421056,-104.691539470614,,,,,
N/A,,Pikwitonei,Manitoba,Canada,R0B 1E0,,66.0184812084637,-97.1557197750066,,,,,
0,E Entrance Rd,Opal,WY,United States,82190-3337,Park,44.4321710376441,-110.328518274711,Yellowstone Lake,,,,
N/A,,Roanwood,Montana,Canada,X0E 1A0,,62.4624153706495,-106.488805919216,Lynx Lake,,,,
N/A,,Gaojiazhuang,Jiangsu,China,225832,,32.946524343157,119.3349768736,Gaoyou Hu,,,,
N/A,,Bjäsäter,Östergotland,Sweden,590 78,,58.4943869369146,15.6002310358002,,,,,
N/A,,Petit-Lac-Long,Quebec,Canada,J8C 2Z8,,59.4329669562739,-74.2977467633682,Lake Payne,,,,
N/A,,Mellon,Quebec,Canada,J0W 2C0,,50.2323217986465,-76.8463792490622,,,,,
N/A,,Fægfjord,Finnmark,Norway,9517,,69.656527455684,24.2183058779582,,,,,
0,,Saint Marys,AK,United States,99690-9998,Bethel,61.0469654653369,-163.271831643826,,,,,
0,,Wake Forest,VA,United States,23917-2622,Mecklenburg,36.6187168291246,-78.5032268696338,John H. Kerr Reservoir,,,,
0,Foot Trl,Nuiqsut,AK,United States,99789-9800,North Slope,70.6030553064759,-153.522499844282,Teshekpuk Lake,,,,
N/A,,Yermaki,Tyumen',Russia,627592,,69.7716238293925,70.9437626730544,,,,,
N/A,,Tungusy,Krasnoyarsk,Russia,668336,,69.1709738279803,93.9702820370746,Ozero Ayan,,,,
N/A,,Ombabika,Ontario,Canada,X0C 0H0,,66.5028573796588,-87.9118084528352,,,,,
N/A,,McMunn,Manitoba,Canada,R0B 1J0,,53.195685466481,-95.6977285286289,,,,,
N/A,,Tynwałd,Warmian-Masurian,Poland,14-204,,53.7059656808638,19.6336574917928,,,,,
N/A,,Ga’erboguo,Xizang,China,851500,,30.725399821885,90.5819859732769,Nam Co,,,,
N/A,,Fairview Colony,North Dakota,Canada,X0B 0A3,,67.3045580799019,-98.4017396558937,,,,,
N/A,,City of Berthold,North Dakota,Canada,X0B 2A0,,64.454230236886,-101.732384097702,,,,,
N/A,,Bear Island,Ontario,Canada,P0H 1C0,,47.0080043321097,-80.078882487432,,,,,
0,,Chefornak,AK,United States,99561-0354,Bethel,60.330630361962,-164.368247497047,,,,,
N/A,,El Tejocote de Puriantzícuaro,Guanajuato,Mexico,38577,,20.0803098924224,-100.555525705575,,,,,
N/A,,Brisco,British Columbia,Canada,X0E 0Y0,,63.0127291063222,-116.257840683745,,,,,
0,Winter Trl,Napaskiak,AK,United States,99634-0120,Bethel,60.5034221045883,-161.737703958485,,,,,
N/A,,Babbitt,Minnesota,Canada,P8T 1E4,,53.3015093701848,-91.940011964839,,,,,
N/A,,Underwood,Minnesota,Canada,R0B 1C0,,55.3074537145236,-95.864526265797,,,,,
N/A,,Minnitaki,Ontario,Canada,P0V 2E0,,64.8625132812176,-93.0836962838737,,,,,
N/A,,Omemee,North Dakota,Canada,R0J 1T0,,56.3380225236116,-100.355534097749,,,,,
N/A,,La Estanzuela (La Chiripa),Michoacan,Mexico,61037,,20.0627952268581,-100.204100308034,,,,,
0,,Eek,AK,United States,99578-9999,Bethel,60.3041375905201,-162.043951687926,,,,,
N/A,,Kintobongo,Katanga,Congo D.R.,,,-8.61930941053393,26.3963531876201,Lac Upemba,,,,
N/A,,Gołysz,Silesian,Poland,43-394,,49.9282436553195,18.8758766405794,,,,,
N/A,,Atwater,Saskatchewan,Canada,S0A 0C0,,54.5965643475006,-102.227357147259,,,,,
N/A,,Silverdale,Newfoundland and Labrador,Canada,A0J 1G0,,48.1789848298395,-55.9884655985308,,,,,
0,Airstrip Rd,Chuathbaluk,AK,United States,99628-0078,Dillingham,59.1072530496027,-159.227359632594,,,,,
N/A,,Chërnyy Zaton,Saratov,Russia,433900,,52.6197620517479,48.310822676999,Saratov Reservoir,,,,
N/A,,Clementson,Minnesota,Canada,P9N 0A7,,63.1225269257423,-94.4273937742023,,,,,
N/A,,Akshiy,Almaty,Kazakhstan,140802,,43.8487413376691,77.6323854765761,Kapchagay Reservoir,,,,
N/A,,Chernovaya,East Kazakhstan,Kazakhstan,071507,,48.7253246497959,83.4350769928513,Lake Zaysan,,,,
0,,Maple Ridge,MN,United States,56666-0320,Beltrami,47.9870594189497,-95.0181562441905,Lower Red Lake,,,,
0,Rd O N 3,Ronan,MT,United States,59911-8218,Lake,47.9016938220815,-114.10476928356,Flathead Lake,,,,
N/A,,Chenhuajia,Hubei,China,430418,,30.278260712772,114.706873004738,,,,,
0,Airstrip Rd,Kilauea,AK,United States,99628-0078,Dillingham,59.102101677378,-159.441488750957,,,,,
N/A,,Van Bruyssel,Quebec,Canada,G8L 7A7,,52.5598589518766,-72.1495299855237,,,,,
N/A,,Jackhead,Manitoba,Canada,R0C 2R0,,57.3491633003089,-97.3025672161331,,,,,
N/A,,Zhande,Xinjiang Uygur,China,859700,,35.2265216898554,79.8537073847272,Alesayqin Ha,,,,
N/A,,Scandia,Alberta,Canada,T9C 1V9,,58.5640040529813,-112.028107030535,Lake Clare,,,,
N/A,,Kulla,Östergotland,Sweden,702 33,,58.5640040529813,15.165969034503,,,,,
N/A,,Nelson Beach,Saskatchewan,Canada,S6V 5S6,,54.2802700928976,-105.713148611964,,,,,
N/A,,Amourdale,North Dakota,Canada,R0K 0H0,,64.1766448650008,-99.3703565782154,,,,,
0,,Pedro Bay,AK,United States,99653-9998,Kenai Peninsula,60.9785258057788,-153.87902111796,,,,,
N/A,,Oxbow,Maine,Canada,G5M 1K8,,53.7145022405506,-68.4998530102348,,,,,
N/A,,Kamuchege,Kirinyaga,Kenya,,,-0.843386628223755,37.3821976920955,Masinga Res.,,,,
N/A,,Pil’dozero,Karelia,Russia,186445,,65.7457528446762,33.4865619280378,Engozero,,,,
N/A,,Labelle,Quebec,Canada,J0Y 3M0,,57.3110431458453,-74.7322942171646,Lac Minto,,,,
N/A,,Ellerth,Minnesota,Canada,X0C 0A0,,63.9566076799699,-96.4772613465717,,,,,
N/A,,Marisco Guapinol,Izabal,Guatemala,18019,,15.5797767527064,-89.0611939656746,Lago de Izabal,,,,
0,Valley of Ten Thousand Smokes Access Rd,Paauhau,AK,United States,99613-0635,Lake and Peninsula,58.7111861165471,-155.412860676671,,,,,
N/A,,Stornoway,Saskatchewan,Canada,S0A 3Z0,,55.8323049531994,-102.039371672575,,,,,
N/A,,Mushpal,Vologda,Russia,162579,,58.6183142344371,38.369348243723,Rybinsk Reservoir,,,,
N/A,,Lisunie,Warmian-Masurian,Poland,11-730,,53.8765496925366,21.5079021020699,,,,,
N/A,,Xiaku,Qinghai,China,627751,,36.8787875354454,100.113266006127,Qinghai Hu,,,,
0,Brooks Camp Rd,Igiugig,AK,United States,99613-0635,Bristol Bay,58.5161698823224,-155.896737841934,,,,,
N/A,,Pongch’ŏl-li,P'yŏngan-bukto,China,113306,,40.5617243120533,125.094177287822,Supung Reservoir,,,,
N/A,,Saint-Ambroise,Quebec,Canada,G7P 2A3,,50.7105163231719,-71.3154280349593,,,,,
N/A,,Gemeente Kollumerland en Nieuwkruisland,Friesland,Netherlands,9293 MK,,53.3780440432391,6.17735908582797,Lauwerszee,,,,
N/A,,Xinwugang,Hubei,China,437017,,30.7879521989005,114.505294319457,,,,,
N/A,,Navezuelas,Extremadura,Spain,10318,,39.8424455674071,-5.43937633251339,,,,,
N/A,,Ross,Minnesota,Canada,R0E 0X0,,65.3237818684329,-95.9246745509381,,,,,
N/A,,Localidad Rural Tizapán,Jalisco,Mexico,49400,,20.2173363936022,-103.043322029609,Lago de Chapala,,,,
0,,Trapper Creek,AK,United States,99672-9314,Kenai Peninsula,60.4282120701061,-150.405516373378,,,,,
N/A,,Rochevo,Arkhangel'sk,Russia,171559,,68.1258339945993,37.906241611207,,,,,
N/A,,Wageningen,Nickerie,Canada,A0K 1M0,,51.1062888921004,-56.6693020930155,,,,,
N/A,,Moose Range,Saskatchewan,Canada,S0E 0A7,,55.3758933740817,-103.702575431995,,,,,
N/A,,Flin Flon,Manitoba,Canada,R8A 1S4,,55.7385499787079,-101.863083179338,,,,,
0,E Narrows Dr,Gallatin Gateway,MT,United States,59758-9726,Fremont,44.808809938309,-111.200947207685,Hebgen Lake,,,,
N/A,,Sainte-Anne-de-Beaupré,Quebec,Canada,G7B 3P9,,53.510949446639,-70.9339867730025,,,,,
N/A,,Snellman,Minnesota,Canada,R0B 0V0,,65.1701237940702,-95.4207709424121,,,,,
N/A,,Nevanka,Irkutsk,Russia,663037,,72.226473467607,98.9153501489772,,,,,
0,,Tok,AK,United States,99780-6080,Southeast Fairbanks,63.1022158009702,-142.756425116716,Tetlin Lake,,,,
N/A,,Swesterpan,Free State,South Africa,B-2660,,-27.6952823051746,25.6771017952155,Bloemhof Dam,,,,
N/A,,Los Ranchos de Sinecapa,León,Nicaragua,31007,,12.337355892351,-86.3991696710016,Lago de Managua,,,,
N/A,,Minersville,Wisconsin,Canada,P0V 1E0,,53.8683074969769,-90.8060766483497,,,,,
0,,Cordova,AK,United States,99674-8131,Valdez-Cordova,61.8954700617939,-146.491018613785,,,,,
N/A,,Hazel,Minnesota,Canada,X0C 0A0,,64.5640280563061,-96.1157190002133,,,,,
N/A,,Vuoggatjålme,Norrbotten,Sweden,820 11,,66.5237572326852,16.3552483623393,,,,,
N/A,,City of Mobridge,South Dakota,Canada,R0K 1T0,,55.8813165803668,-100.42862704389,,,,,
N/A,,Tatarskoye,Krasnoyarsk,Russia,652287,,69.7879610384482,87.7773795780516,Ozero Pyasino,,,,
N/A,,Hornbeck,Alberta,Canada,X0B 0E0,,68.2603584006985,-116.69006797385,,,,,
0,7600 W Rd,Portage,UT,United States,84307-9745,Weber,41.4980966004591,-112.228395644056,,,,,
N/A,,Silverdale,Minnesota,Canada,P9A 1G6,,48.6451104251525,-93.1151148559654,Rainy Lake,,,,
N/A,,Colville Lake,Northwest Territories,Canada,X0E 1L0,,68.6358198448549,-126.099842592281,,,,,
N/A,,Jurvala,Southern Finland,Finland,54950,,61.0064903978563,27.7601802593485,,,,,
N/A,,Norway House,Manitoba,Canada,R8N 1N6,,65.611228438577,-97.8403702649341,,,,,
N/A,,Slavgorodka,Omsk,Kazakhstan,151214,,53.8507928314125,72.9384376932763,Ozero Teke,,,,
0,,Idahome,ID,United States,83350-8452,Minidoka,42.6720207394603,-113.39415226567,Lake Walcott,,,,
1847,Sunset Cir,Van Alstyne,OK,United States,73439-5226,Bryan,33.9295533457132,-96.5800952880771,Lake Texoma,,,,
N/A,,Ardmore,Alberta,Canada,T0B 1G0,,64.5404789261355,-110.48300624036,,,,,
N/A,,Sachs Harbour,Northwest Territories,Canada,V0L 1C0,,68.2800807972163,-125.296164058373,,,,,
N/A,,Igenche,Tatarstan,Russia,423371,,55.8635075506753,52.6476422763048,Nizhnekamsk Reservoir,,,,
N/A,,Woss,British Columbia,Canada,V0N 3P0,,68.1274529972985,-126.600655364087,,,,,
N/A,,Bandera,Washington,Canada,V0K 1T1,,63.9673519706102,-121.536678987146,Keller Lake,,,,
N/A,,Jenson Trailer Park,Minnesota,Canada,R0B 1P0,,56.1783299846426,-96.1720279233439,Split Lake,,,,
N/A,,Phillips Arm,British Columbia,Canada,V9H 1P1,,65.5064348093181,-125.365292610639,,,,,
N/A,,South Dover,Maine,Canada,G0L 3K0,,56.3546540967945,-69.1443339498371,,,,,
N/A,,Bunyonyi,Kabale,Uganda,,,-1.27919271844218,29.9243223985814,Lake Bunyonyi,,,,
N/A,,Grand Rapids,Manitoba,Canada,X0C 0A0,,65.531897306315,-99.3030526828642,,,,,
N/A,,Qaryat al ‘Ankūr,Al-Anbar,Iraq,,,33.3131548634995,43.4408548334409,Lake Habbaniyah,,,,
N/A,,Big Farm,Nova Scotia,Canada,B2C 1K9,,52.4653680670673,-60.8201214901317,,,,,
N/A,,Therien,Alberta,Canada,T9H 0C2,,63.9580795006055,-111.277300007726,,,,,
N/A,,Vernon,British Columbia,Canada,V9N 1P9,,65.4706695678716,-126.35608370459,,,,,
N/A,,Niedźwiedzi Róg,Warmian-Masurian,Poland,11-730,,53.7404062837382,21.6836198042245,,,,,
N/A,,Pestovo,Tomsk,Russia,632241,,61.127621236171,76.7483740535811,Ozero Samotlor,,,,
N/A,,Lac-Bachelor,Quebec,Canada,K0A 3M0,,48.5799087709929,-76.1107067793717,,,,,
0,Beach Ln,Dune Acres,WI,United States,54241-3811,Lake Michigan,43.8784721145094,-87.0887237694855,Lake Michigan,,,,
N/A,,Usk,British Columbia,Canada,V8G 0A7,,66.9120235163718,-128.388870234084,,,,,
N/A,,Uitvlugt,Essequibo Islands-West Demerara,Canada,G0G 2P0,,52.4571258715077,-58.3127118337553,,,,,
N/A,,New Rockport Colony,Montana,Canada,T9C 1S7,,64.7634597524378,-112.022213218278,,,,,
0,USFS Rd 23,Vernal,UT,United States,84046-3101,Daggett,41.1207217894764,-109.523625613135,Flaming Gorge Reservoir,,,,
N/A,,Salmo,British Columbia,Canada,X0E 1P0,,63.8855187432676,-117.270519828156,,,,,
N/A,,City of Coffman Cove,Alaska,Canada,X0E 0T0,,67.9902793140552,-132.842997463833,,,,,
N/A,,Armstrong Station,Ontario,Canada,X0C 0H0,,66.5545182839704,-89.0307736320555,,,,,
0,,Oylen,MN,United States,56650-3118,Beltrami,48.1292372923543,-94.7991182225219,Upper Red Lake,,,,
N/A,,Entrance Island,Alaska,Canada,Y0B 1K0,,68.2148791430566,-133.479692316155,,,,,
N/A,,Gagan-Tagwaye,Kebbi,Nigeria,241102,,10.2542881467038,4.56548311970259,Kainji Reservoir,,,,
N/A,,Huronian,Ontario,Canada,X0C 0B0,,51.0555110801702,-90.7299322566061,Lake St. Joseph,,,,
N/A,,Glacier,British Columbia,Canada,T0H 0P0,,60.5567020115991,-117.520375162196,Tathlina Lake,,,,
N/A,,Shilo,Manitoba,Canada,R0K 2A0,,65.2528401137942,-99.6417450688573,,,,,
403,Co Rd 6421,Tabernash,CO,United States,80447-8710,Grand,40.175371395193,-105.845154253758,Lake Granby,,,,
N/A,,Deschambault Lake,Saskatchewan,Canada,S0P 0C0,,66.4323571712108,-103.368325824542,,,,,
N/A,,Karankamäki,Eastern Finland,Finland,47850,,61.3932848609073,26.6321785579122,,,,,
N/A,,Bunyan,Ontario,Canada,N7S 1N8,,44.6859129152316,-82.2883254798575,Lake Huron,,,,
N/A,,Dorion,Ontario,Canada,P0T 1K0,,66.6668181984712,-88.5384781804372,,,,,
N/A,,Flanders,Michigan,Canada,P0L 1R0,,48.3841566264503,-83.7536717250912,,,,,
N/A,,Quathiaski Cove,British Columbia,Canada,V0C 2X0,,67.0153453249951,-125.230048248693,,,,,
N/A,,Island Falls,Saskatchewan,Canada,X0B 2A0,,65.094913759588,-102.353130360152,,,,,
N/A,,Gatow,Berlin,Germany,14089,,52.4693419827836,13.185337707099,,,,,
N/A,,Korsträsk,Norrbotten,Sweden,861 39,,66.3190269822651,17.3658644215554,Hornavan,,,,
N/A,,Choiceland,Saskatchewan,Canada,S0J 0M0,,60.0740920251667,-104.482420172198,Selwyn Lake,,,,
N/A,,Carberry,Manitoba,Canada,R0K 0H0,,65.9612273857365,-99.3610595046512,Garry Lake,,,,
N/A,,Fenwood,Saskatchewan,Canada,S0A 0Y0,,65.0146995349447,-103.045388890853,,,,,
N/A,,Nianziwan,Hubei,China,430418,,30.6912535831377,114.707422444165,,,,,
N/A,,Unezhma,Arkhangel'sk,Russia,162827,,66.7855941237688,36.7997172325661,,,,,
N/A,,Ferland,Saskatchewan,Canada,S0K 2L0,,55.8713082000443,-106.957810573867,,,,,
N/A,,Levering,Michigan,Canada,P0M 1Z0,,46.7139345691052,-84.7869471602486,Whitefish Bay,,,,
0,Okstukuk Lake Trl,Manokotak,AK,United States,99555-0196,Dillingham,60.0456858868985,-159.022462330159,,,,,
N/A,,Pine Falls,Manitoba,Canada,R0E 1M0,,63.6289804064723,-96.2206326473716,,,,,
N/A,,Beadle,Saskatchewan,Canada,X0E 1W0,,65.4178312070515,-109.000460041975,,,,,
N/A,,Vanguard,Saskatchewan,Canada,S0N 2V0,,54.7668539950463,-107.29363218209,,,,,
100,Welch Island,Wonalancet,NH,United States,03249-7700,Belknap,43.6107479408832,-71.356710629771,Lake Winnipesaukee,,,,
N/A,,Town of Fort Peck,Montana,Canada,S0J 2B0,,55.6954256340831,-106.464768733217,,,,,
0,Happy Creek Trl,Chignik,AK,United States,99555-0196,Dillingham,59.6700772606785,-158.76921660798,,,,,
0,,Snowville,ID,United States,83210-1742,Power,42.9404808234043,-112.717428411236,American Falls Reservoir,,,,
N/A,,Waugh,Manitoba,Canada,X0C 0E0,,61.6183262360995,-95.1920207774431,,,,,
N/A,,Marcelin,Saskatchewan,Canada,S0J 1X0,,64.3308916676178,-106.783992101462,,,,,
N/A,,Sedibeng District Municipality,Gauteng,South Africa,B-1437,,-26.9983752341904,28.1856733749365,Vaal Dam,,,,
N/A,,Passes-Dangereuses,Quebec,Canada,G7S 4G9,,64.9965961411261,-71.1648501586917,Amadjuak Lake,,,,
N/A,,Conrath,Wisconsin,Canada,P0V 2S0,,49.9046945251489,-91.031266967093,,,,,
N/A,,Ross River,Yukon,Canada,Y0B 1S0,,60.0287599495884,-132.44711553493,Teslin Lake,,,,
N/A,,Trancura,Araucania,Argentina,Q8347XAH,,-40.9373997462564,-71.551841924757,Lago Nahuel Huapí,,,,
0,Happy Creek Trl,Aleknagik,AK,United States,99555-0196,Dillingham,59.376007497674,-158.85651057129,,,,,
N/A,,Broadview,Saskatchewan,Canada,S0G 0K0,,62.5729491003875,-102.583179298982,,,,,
N/A,,Marqua,Northern Territory,Australia,5733,,-28.4838838017604,137.298600313602,Lake Eyre North,,,,
N/A,,La Colorada,Chihuahua,Mexico,33645,,27.5425876972738,-105.441287664631,Presa de la Boquilla,,,,
N/A,,Vozritsy,Karelia,Russia,186346,,68.5186629222565,35.3951982251217,Serebryanskoe Reservoir,,,,
N/A,,Rybitwy,Warmian-Masurian,Poland,12-200,,53.6699060752901,21.918651282228,,,,,
N/A,,Murphy Beach,Ontario,Canada,L3V 6H7,,44.4976670559309,-79.3183690854238,Lake Simcoe,,,,
N/A,,Ruvozero,Karelia,Russia,187332,,66.1674294567923,30.7884090196577,Pjrvi,,,,
N/A,,Deschambault Lake,Saskatchewan,Canada,S0P 0C0,,61.53001699796,-103.372343680271,,,,,
N/A,,Savant Lake,Ontario,Canada,P0V 2S0,,50.0920572920682,-90.7009676815197,Sturgeon Lake,,,,
0,,Aleknagik,AK,United States,99555-0196,Dillingham,60.3635991442007,-158.867789236062,,,,,
N/A,,Gjoa Haven,Nunavut,Canada,X0B 1J0,,62.9033728330928,-95.8865302550896,,,,,
N/A,,Vieux-Poste,Quebec,Canada,A0P 1K0,,53.0585117832376,-58.9509961162197,,,,,
N/A,,Kedrovyy,Irkutsk,Russia,665523,,72.353933134655,99.1301778512855,,,,,
N/A,,La Conception-Station,Quebec,Canada,J8E 1A2,,60.597765807334,-74.6755482097239,,,,,
N/A,,Moose Range,Saskatchewan,Canada,S0A 4M0,,58.6290585250774,-103.6907397152,,,,,
N/A,,South Dover,Maine,Canada,G0L 3K0,,56.3546540967945,-69.1443339498371,,,,,
N/A,,Armstrong Station,Ontario,Canada,X0C 0H0,,66.5545182839704,-89.0307736320555,,,,,
N/A,,Dorion,Ontario,Canada,P0T 1K0,,66.6668181984712,-88.5384781804372,,,,,
0,Okstukuk Lake Trl,Chignik,AK,United States,99555-0196,Dillingham,59.7878229115312,-158.734099176453,,,,,
N/A,,Bergland,Ontario,Canada,P0X 1M0,,54.6295331297394,-94.3827852892797,Gods Lake,,,,
N/A,,Crucecitas,Michoacan,Mexico,40865,,18.5815549391315,-101.824344231992,Presa del Infiernillo,,,,
N/A,,Løvøya,Sør-Trøndelag,Norway,2100,,62.6538992353487,11.6782452146611,Aursund,,,,
N/A,,English River,Ontario,Canada,P0V 2S0,,49.7912171541397,-90.9658154822214,,,,,
N/A,,Laojunmiao,Henan,China,463344,,33.0104013587446,114.251497482218,,,,,
N/A,,Buffalo,Maine,Canada,G5M 1K9,,56.2460337338829,-68.4902711089737,,,,,
N/A,,Shell Valley,North Dakota,Canada,R0B 1A0,,63.9969355653869,-99.8716352469424,,,,,
1,Toklak Dr,Lake Minchumina,AK,United States,99757-9998,Denali,63.8946440312087,-152.192574983073,Lake Minchumina,,,,
N/A,,‘Abd al Ḩamīd Faza‘,Sala ad-Din,Iraq,,,34.0241914125861,43.2224941954673,Buhayrat ath Tharthar,,,,
N/A,,Daily,North Dakota,Canada,R0H 0Z0,,62.6973179441006,-97.9757315424465,Yathkyed Lake,,,,
N/A,,Clover Pass,Alaska,Canada,V0T 1T0,,67.6976813716863,-131.785881098868,Travaillant Lake,,,,
N/A,,Fitzpatrick,Quebec,Canada,G9X 3N7,,55.1087579287097,-72.7708594574054,Lake Bienville,,,,
N/A,,Wawina,Minnesota,Canada,X0B 1B0,,69.252071145005,-93.123181659566,,,,,
N/A,,Rāwatbhāta,Rajasthan,India,323305,,24.8297279016284,75.5995713604421,,,,,
N/A,,Grassy Narrows,Ontario,Canada,P0V 2L0,,50.3022332788403,-93.9948041972592,,,,,
N/A,,Perevizskiye Khutora,Dnipropetrovs'k,Ukraine,53301,,47.342843526722,34.0675356175121,Kakhovka Reservoir,,,,
N/A,,Letniye-Kiyevskiye,Tomsk,Russia,658991,,61.2262332187601,79.3493212577373,Ozero Tormemtor,,,,
N/A,,Al Madīnah as Siyāḩīyah fī al Ḩabānīyah,Al-Anbar,Iraq,,,32.8102337522951,43.5720026213699,Lake Razazah,,,,
N/A,,Porcupine Plain,Saskatchewan,Canada,S0J 2L0,,55.2449013375081,-103.2448406642,,,,,
N/A,,Paloniemi,Eastern Finland,Finland,83320,,62.7217501666525,29.3018446991339,,,,,
N/A,,Bienfait,Saskatchewan,Canada,X0B 2A0,,66.5577562893689,-102.820797613811,,,,,
N/A,,Chapatenco,Chiapas,Mexico,30206,,16.1228785672643,-92.5488919361839,Presa de la Angostura,,,,
N/A,,Hatley Centre,Quebec,Canada,J0M 1K0,,55.9793398347016,-71.947800204052,,,,,
N/A,,Beaufield,Saskatchewan,Canada,X0E 1A0,,61.8574970893939,-109.109219153342,Nonacho Lake,,,,
N/A,,Rollins,Minnesota,Canada,P8T 1J9,,50.0158169831411,-91.8542524289945,Minnitaki Lake,,,,
N/A,,Spy Hill,Saskatchewan,Canada,S0A 3L0,,58.7130994833735,-101.687682799391,,,,,
N/A,,Diemitz,Mecklenburg-Vorpommern,Germany,16837,,53.2226197841136,12.8343044851615,,,,,
N/A,,New Portland,Maine,Canada,G5A 1Z2,,51.712237447801,-70.101297558285,Lake Pltipi,,,,
5988,Rainbow Island Dr,Rosholt,SD,United States,57260-7107,Traverse,45.7086810749506,-96.7314361894156,Lake Traverse,,,,
N/A,,Val-Viger,Quebec,Canada,K4K 1W1,,58.2225416655085,-75.219152253871,Lac Chavigny,,,,
N/A,,Markovshchina,Karelia,Russia,187661,,66.8432894926866,35.1743705440652,,,,,
N/A,,Marwayne,Alberta,Canada,T0B 2X0,,65.4326965954716,-110.336348284853,Contwoyto Lake,,,,
N/A,,Island Falls,Saskatchewan,Canada,S0A 0E0,,58.8370267808959,-102.347052827372,,,,,
N/A,,Headingley,Manitoba,Canada,R4H 1H3,,61.4539238710964,-97.4151913867372,,,,,
N/A,,Domaine-Air-Pur,Quebec,Canada,J0T 2C0,,56.7095100520517,-74.2052465586603,,,,,
N/A,,Skora,Hedmark,Sweden,466 93,,60.9858849089571,12.5196989763924,,,,,
N/A,,Temir,Omsk,Kazakhstan,081114,,53.4338260453305,73.7742589166004,Qyzylqaq Kli,,,,
0,,Three Forks,MT,United States,59644-9781,Broadwater,46.5080268621766,-111.545443272474,Canyon Ferry Lake,,,,
N/A,,Paddockwood,Saskatchewan,Canada,S0J 1B0,,61.5834440870344,-105.563149195099,,,,,
N/A,,Woodley,Saskatchewan,Canada,S0J 3C0,,58.8333472293067,-102.898098231197,,,,,
N/A,,El Salitre,Chalatenango,El Salvador,,,14.0089025882682,-89.0315185686819,,,,,
N/A,,Janji Matogu,Sumatera Utara,Indonesia,21171,,2.61583341176407,98.9021745242572,Danau Toba,,,,
N/A,,Åmot,Ãstfold,Norway,1816,,59.3957298941918,11.1570994957017,,,,,
0,Kilroy Beach,Pine Ridge,ID,United States,83860-9079,Bonner,48.1365963955326,-116.377547412356,Lake Pend Oreille,,,,
N/A,,Francês,Para,Canada,A0K 2W0,,48.2718567119496,-56.5792059590126,,,,,
N/A,,City of Inkster,North Dakota,Canada,R0C 0K0,,63.9293789982102,-97.650208441895,,,,,
N/A,,Hiawatha Park,Ontario,Canada,J9L 0B5,,58.646131644451,-75.5464217684118,,,,,
N/A,,Comertown,Montana,Canada,S0J 2R0,,61.419483268222,-104.24052512708,,,,,
N/A,,Campamento Número Uno,Chalatenango,El Salvador,,,13.9925653792124,-88.7723639309152,,,,,
0,,Hansen,WI,United States,54646-6805,Juneau,44.0596532347589,-90.0109436649854,Petenwell Lake,,,,
N/A,,Świdry,Warmian-Masurian,Poland,11-500,,53.9922347944993,21.7856354922804,,,,,
N/A,,Saint-Aimé-des-Lacs,Quebec,Canada,G0T 1S0,,53.850645649349,-70.2967587948276,,,,,
N/A,,Tabanbükü,Elazığ,Turkey,23800,,38.5183957235688,38.4160733479322,Saksak Dagi,,,,
N/A,,Macdonald,Manitoba,Canada,R0H 0S0,,63.9629365087032,-98.4690026528311,,,,,
N/A,,West Side Trailer Court,Minnesota,Canada,R0B 0S0,,55.5124783290708,-95.7785820696255,,,,,
N/A,,Kandalaksha,Murmansk,Russia,184370,,67.4470303174337,32.4083169525651,,,,,
N/A,,Lac-Lasalle,Quebec,Canada,J5M 2M7,,60.0342056859404,-73.7030465677999,,,,,
N/A,,Yaocun,Shandong,China,277525,,34.619837223837,117.234642162683,Weishan Hu,,,,
N/A,,Al Jiftlik,West Bank,Israel,86983,,31.5353427176878,35.4778479489184,Dead Sea,,,,
0,,Wilsall,WY,United States,83013-0634,Teton,43.9485307767667,-110.665858423631,Jackson Lake,,,,
N/A,,Paradijs,Nickerie,Canada,A0K 4A0,,48.6978016039091,-56.9037156146459,,,,,
N/A,,Norway House,Manitoba,Canada,R8N 1N6,,57.0336049560237,-97.8251901662305,,,,,
4990,Point Lookout Point Rd,Alabaster,MI,United States,48703-9654,Lake Hurron,43.9878283877388,-83.5551217671337,Saginaw Bay,,,,
N/A,,Cherry Grove,Alberta,Canada,T0C 1A0,,54.5397520709642,-110.068695076104,,,,,
4753,W Lake Rd,Prattsburgh,NY,United States,14424-8902,Ontario,42.7941818522199,-77.3054262217486,Canandaigua Lake,,,,
0,Winter Trl,Scammon Bay,AK,United States,99778-0580,Nome,65.1311205472252,-165.689140523957,,,,,
N/A,,Páhara,Atlantico Norte,Nicaragua,70011,,14.3000287100014,-83.2908925675505,,,,,
N/A,,Vershina,Khanty-Mansiy,Russia,627039,,65.7676829721475,66.094096613973,Ozero Pitlyarskiy Sor,,,,
N/A,,Englefeld,Saskatchewan,Canada,S4P 3G7,,54.9158022433749,-104.647926773283,,,,,
N/A,,Nyamboyto,Yamal-Nenets,Russia,658946,,64.1402908953,80.366594933326,Ozero Chrtovo,,,,
N/A,,City of Starkweather,North Dakota,Canada,R0H 0L0,,63.7595308968552,-98.87338037025,,,,,
0,,Mountain Village,AK,United States,99690-9998,Wade Hampton,61.1476379968159,-163.853033257253,,,,,
N/A,,South Dawson,British Columbia,Canada,V1G 0B6,,65.92752269318,-120.35408144591,Great Bear Lake,,,,
N/A,,Wendgräben,Brandenburg,Germany,14798,,52.3901580325852,12.4654723290577,,,,,
N/A,,Yenikuşak,Adiyaman,Turkey,02450,,37.6582637440901,38.8053434023359,Ataturk Barajt,,,,
N/A,,Kedrovyy,Irkutsk,Russia,665523,,72.3501064010023,99.1228846377519,,,,,
N/A,,Spruce Grove,Alberta,Canada,T7X 3S4,,61.8168748398498,-113.92767269397,Great Slave Lake,,,,
N/A,,Macdonald,Manitoba,Canada,R0H 0S0,,51.6785327552444,-98.4622900897018,,,,,
75,Nepaitneq Rd,Tuntutuliak,AK,United States,99609-9800,Bethel,60.8030847860083,-162.632145596635,,,,,
N/A,,La Playa,Sonora,Mexico,84583,,30.5046267265363,-109.35321944811,,,,,
N/A,,Galata,Montana,Canada,T9H 5N2,,62.6693533520231,-111.352894956243,McLeod Bay,,,,
N/A,,Stanton,North Dakota,Canada,R0B 2E0,,60.973374433554,-101.38983879088,,,,,
N/A,,L'Anse-à-Valleau,Quebec,Canada,G4X 4G2,,52.692617173213,-64.5569225253301,,,,,
N/A,,West Forks,Maine,Canada,G5A 2G2,,53.5924883098545,-70.0458022511887,,,,,
0,Star Island SE,Cushing,MN,United States,56633-3503,Hubbard,47.4251183002553,-94.5743510189758,Cass Lake,,,,
0,Snake Lake Rd,Aleknagik,AK,United States,99555-0196,Dillingham,59.2472231920539,-158.911528315447,,,,,
N/A,,Grind Stone City,Michigan,Canada,N8P 1A5,,46.0432259054357,-82.9010061337409,North Channel,,,,
N/A,,Galitskoye,Poltava,Ukraine,37130,,49.2875601326174,32.7264449852858,Kremenchuk Reservoir,,,,
N/A,,Ochre River,Manitoba,Canada,R0C 0V0,,51.2920326563205,-99.7865928057203,,,,,
N/A,,Fosterville,New Brunswick,Canada,E7E 2N8,,51.8582420548583,-67.7659656419054,,,,,
N/A,,Dallas,Manitoba,Canada,R0C 0S0,,52.4006079590984,-97.4814590690484,Lake Winnipeg,,,,
0,,Kwigillingok,AK,United States,99736-0078,Nome,65.6165269928654,-163.21672213445,,,,,
N/A,,Gan,Akershus,Norway,1903,,59.8026882999513,11.2093581744568,Yeren,,,,
N/A,,Bengtsbo,Dalarna,Sweden,733 63,,60.1415014102799,16.3493351459753,,,,,
N/A,,Zapote,Sinaloa,Mexico,85775,,26.6203448869703,-108.527929162091,Presa Miguel Hidalgo,,,,
0,Okstukuk Lake Trl,Chignik,AK,United States,99555-0196,Dillingham,59.960761836221,-158.720828502172,,,,,
N/A,,Saindao,Nusa Tenggara Timur,Australia,6762,,-23.4791049122677,122.772522490751,Lake Disappointment,,,,
N/A,,Ferma Nomer Dva Sovkhoza Seletinskiy,Pavlodar,Kazakhstan,021019,,52.8668807364749,74.107838215804,Zhalauly Kli,,,,
N/A,,Kuroki,North Dakota,Canada,R0B 2E0,,59.5855947561917,-101.138890128492,,,,,
N/A,,Sumskaya,Karelia,Russia,174442,,67.0506690202509,34.1148956428775,,,,,
614,Broussard Rd,Oberlin,LA,United States,70549-6510,Jefferson Davis,29.8957345295644,-92.7649191404042,,,,,
N/A,,Ladoga,North Dakota,Canada,R0J 1A0,,52.0909368973558,-99.5610664760425,,,,,
N/A,,Sylvanite,Montana,Canada,V0B 1L0,,50.2430660892868,-115.868594421513,,,,,
0,,Paauhau,AK,United States,99613-0635,Lake and Peninsula,59.0033425127253,-155.412247159859,,,,,
0,,Manokotak,AK,United States,99555-0196,Dillingham,60.2326071076271,-159.001380251721,,,,,
N/A,,Māij Char,Dhaka,Bangladesh,3403,,24.1635818819294,90.9851666529198,,,,,
N/A,,Shaolaowobu,Jilin,China,131312,,45.2619835120282,124.27184082249,Qagan Nur,,,,
0,,Kipnuk,AK,United States,99690-9998,Bethel,60.9617470505323,-163.987458312529,,,,,
N/A,,Les Buissons,Quebec,Canada,G5N 5K5,,51.3444294709499,-68.3750039850393,Réservoir Manicouagan,,,,
N/A,,Ol’khovatka,Poltava,Ukraine,51630,,48.7632976221959,34.1909452225679,,,,,
N/A,,Cashel,North Dakota,Canada,R0C 2R0,,60.3886200950069,-97.2915063215056,,,,,
0,Happy Creek Trl,Manokotak,AK,United States,99555-0196,Dillingham,59.5467386914103,-159.011537347253,,,,,
N/A,,Linkletter,Prince Edward Island,Canada,C1N 4H9,,52.2022065374116,-63.8248734560706,,,,,
4804,W Lake Rd,Brutus,NY,United States,13021-9614,Cayuga,42.8623271476509,-76.5229656858603,Owasco Lake,,,,
N/A,,Morley,Ontario,Canada,N0H 1E0,,45.2472653056717,-80.743894427573,Georgian Bay,,,,
N/A,,Saint-David-de-Falardeau,Quebec,Canada,G7G 4N4,,52.8751229320346,-71.1210852272644,,,,,
0,Pulayaraq Rd,Nunapitchuk,AK,United States,99641-0078,Bethel,61.0382817235865,-162.489867508764,,,,,
N/A,,Hokanniemi,Eastern Finland,Finland,46960,,61.803922818256,26.7024720437629,,,,,
3552,River Rd,Sneads,FL,United States,32460-3631,Seminole,30.8209209811392,-84.9342731454491,Lake Seminole,,,,
N/A,,Numby,New South Wales,Australia,2586,,-33.9466932730699,149.013924977265,Wyangala Reservoir,,,,
N/A,,Buffalo Narrows,Saskatchewan,Canada,S0M 0J0,,64.175908954683,-108.482367474239,Aylmer Lake,,,,
N/A,,Town of Silverthorne,Colorado,Canada,S0J 2Y0,,55.7275113239405,-106.083076197818,,,,,
N/A,,Flora,North Dakota,Canada,R0B 2C0,,60.2290747381016,-99.4266055513387,Nueltin Lake,,,,
N/A,,Beaver Lake,Ontario,Canada,N0M 2E0,,47.0745306248415,-81.4937416645846,,,,,
N/A,,Gamīchī,East Azarbaijan,Iran,,,37.6977085371257,45.5119354853278,Lake Urmia,,,,
2709,Hard Scrabble Rd,Groton,NY,United States,13152-8977,Cayuga,42.8645348786044,-76.358464108602,Skaneateles Lake,,,,
N/A,,Sliammon,British Columbia,Canada,V0L 1V0,,66.9352782824152,-124.588129173631,,,,,
N/A,,Pambrun,Saskatchewan,Canada,S0L 0T0,,63.9386514682148,-107.45174515596,Clinton-Colden Lake,,,,
N/A,,Santarém-Mirim,Para,Brazil,79730-000,,-2.25368516131158,-54.2384697418038,Lago Grande,,,,
N/A,,Gallin,Brandenburg,Germany,14542,,52.3967812254457,12.9405446072861,,,,,
N/A,,Hallboro,Manitoba,Canada,R0J 0J0,,64.5877243685402,-99.4507748461261,Aberdeen Lake,,,,
N/A,,Filimonov,West Kazakhstan,Russia,404243,,49.1550962754081,46.6856130830078,,,,,
0,,Kipnuk,AK,United States,99561-0354,Bethel,60.302812951948,-163.930536033261,,,,,
N/A,,Lac-Simon,Quebec,Canada,J0V 1G0,,53.6830052789475,-75.0939191535763,Réservoir de La Grande 3,,,,
N/A,,Ruddell,Saskatchewan,Canada,S0M 2S0,,63.1519633384555,-107.850951593986,,,,,
N/A,,Daxinzhuang,Henan,China,474661,,33.3359680833522,112.555348214138,,,,,
N/A,,Rabbit Lake,Saskatchewan,Canada,S0M 2L0,,55.5675244208444,-107.763612107693,Lac Île-à-la-Crosse,,,,
N/A,,Rapid View,Saskatchewan,Canada,S0M 1N0,,63.5334592472181,-108.824153492725,,,,,
N/A,,Le Petit-Canada,Quebec,Canada,J0Z 3R0,,46.9782735552694,-79.0923852060118,Lake Kipawa,,,,
N/A,,Notre-Dame-de-la-Merci,Quebec,Canada,J0T 2A0,,53.412631828177,-74.0503845912346,,,,,
N/A,,Crestview,Yukon,Canada,Y1A 6S1,,61.1580879233291,-135.163041414671,,,,,
N/A,,Neudorf,Saskatchewan,Canada,S4P 2Z3,,60.6207262092502,-103.020935036998,,,,,
N/A,,Balgonie,Saskatchewan,Canada,S0G 0E0,,60.6679716516549,-104.268880946754,Wholdaia Lake,,,,
N/A,,Kobylkinskiy Kordon,Novosibirsk,Russia,632091,,64.5029474999263,79.0892066027493,Ozero Chaselskoye,,,,
N/A,,Juan Ríos Pescador,Tamaulipas,Mexico,89280,,22.1433608774248,-97.8722049189297,Laguna de Pueblo Viejo,,,,
N/A,,Kozyrevskiy,Kamchatka,Russia,684406,,69.3078531470965,160.066872118509,Ozero Nerpich'ye,,,,
N/A,,Somme,Saskatchewan,Canada,S0A 1G0,,62.0793004591877,-102.970992375056,,,,,
N/A,,Grand-Calumet,Quebec,Canada,K7V 4A1,,52.7904932454843,-76.6895195918065,,,,,
N/A,,North Campbell River,British Columbia,Canada,V9W 5W2,,66.8406402155424,-125.267141669899,,,,,
N/A,,Sprague,Manitoba,Canada,R0E 0J0,,64.9079925388594,-95.6340415112007,Tehek Lake,,,,
N/A,,Kutarey,Krasnoyarsk,Russia,665743,,73.0163996027648,101.00062526283,Ozero Kokora,,,,
N/A,,Hedesunda,Gavleborg,Sweden,818 30,,60.3288641771992,17.0127902831429,,,,,
N/A,,Busongo,Katanga,Congo D.R.,,,-6.07158789020933,29.4617630636473,Lake Tanganyika,,,,
N/A,,Vyshhorod,Kiev,Ukraine,07044,,50.9077402883501,30.4989271734588,Kiev Reservoir,,,,
0,,Lake Hubert,MN,United States,56626-1005,Cass,47.4364513191499,-94.2518509576136,Lake Winnibigoshish,,,,
N/A,,El Tigre,Veracruz,Mexico,89641,,22.2173934553984,-98.0816014677918,Laguna Chil,,,,
N/A,,Vasil’yevka,Tatarstan,Russia,422382,,54.5722793070123,48.6456778113301,Samara Reservoir,,,,
N/A,,Zehner,Saskatchewan,Canada,S0E 0W0,,55.5333781820972,-104.461889318327,,,,,
0,,Gueydan,LA,United States,70510-0672,Vermilion,29.7559115691769,-92.5075260353949,,,,,
N/A,,Inwood,Manitoba,Canada,R4L 1A1,,54.7477203267827,-97.5003822607942,,,,,
N/A,,Cheremushka,Pavlodar,Kazakhstan,141215,,52.2989051531744,75.8292230070498,Shreksor Kli,,,,
N/A,,Zhengjiafan,Hubei,China,437017,,30.4288279637999,114.508496942305,,,,,
N/A,,Tiéssou,Vallee du Bandama,Cote d'Ivoire,,,7.52553268819318,-5.66070724969969,Lac de Kossou,,,,
N/A,,McAlpine Corners,Ontario,Canada,J9P 7B8,,53.5049149820328,-77.8616747926388,,,,,
N/A,,Fielding,Saskatchewan,Canada,X0B 0C0,,70.0609837663629,-107.540279310099,Washburn Lake,,,,
N/A,,Navarre,Quebec,Canada,J9L 0C9,,69.5557077421414,-75.5691201156342,,,,,
N/A,,Three Hills,Alberta,Canada,T9S 1L9,,66.2775216403395,-113.270151412701,Takijuq Lake,,,,
N/A,,Lindbol,Sodermanland,Sweden,643 95,,59.2379507220492,15.8289392919205,Hjälmaren,,,,
0,,Bouse,AZ,United States,86444-9997,Mohave,36.209403510348,-114.013455397578,Lake Mead,,,,
149,Whispering Winds Rd,Blue Water Estates,KY,United States,42211-8468,Trigg,36.8300702724051,-87.9713602423492,Lake Barkley,,,,
N/A,,Angico,Bahia,Brazil,46335-000,,-10.1420550401861,-42.4592460590571,Represa de Sobradinho,,,,
N/A,,Lac-Simon,Quebec,Canada,J0V 1G0,,51.4021248398677,-75.1012465760215,,,,,
N/A,,Bigelow,Ontario,Canada,J0Z 2L0,,70.8578274585083,-79.5109974349994,,,,,
0,,Pine Cliff,ID,United States,83287-5126,Bear Lake,42.0071993583334,-111.354456536058,Bear Lake,,,,
N/A,,Odanakumadona,Central,Botswana,,,-21.2919794476794,24.7438465405845,Lake Xau,,,,
N/A,,Whyte,Minnesota,Canada,P0T 1C0,,48.8978220282951,-91.5527855482422,Marmion Lake,,,,
N/A,,Petzow,Brandenburg,Germany,14469,,52.3382027641464,12.9525621928133,,,,,
N/A,,Apatity,Murmansk,Russia,186685,,67.1245544161609,33.4065302380125,,,,,
N/A,,Rinconada la Bonita,Tamaulipas,Mexico,88321,,26.1655523105519,-98.9845017128011,Presa Marte R. Gomez,,,,
N/A,,Nugunek,Tashauz,Uzbekistan,231305,,41.9396427911567,57.3736481644598,Sarygamysh Köli,,,,
N/A,,King Kirkland,Ontario,Canada,P0K 1K0,,70.2105207429458,-79.959200326547,,,,,
N/A,,Whapmagoostui,Quebec,Canada,J0M 1G0,,54.1388281298109,-77.7532838415689,,,,,
N/A,,Seloila,Karelia,Russia,173510,,60.8447373099974,31.6610064640249,Lake Ladoga,,,,
N/A,,Kazachenkov,Astrakhan',Russia,404200,,48.2100402452519,46.9067539223726,,,,,
N/A,,Winger,Minnesota,Canada,R0E 1A0,,50.349773085372,-95.9921587142715,Lac du Bonnet,,,,
N/A,,Abubu,Maluku,Australia,6770,,-22.332851001217,128.794079120205,Lake Mackay,,,,
0,Fernwood Rd,Sebago Lake,ME,United States,04071-8023,Cumberland,43.8637539081528,-70.5596300305845,Sebago Lake,,,,
N/A,,Bayanda,Irkutsk,Russia,665548,,72.3008004097077,99.5349994469411,Ozero Labaz,,,,
N/A,,Montrock,Ontario,Canada,N0H 2S0,,70.9243537512401,-80.6995990063373,,,,,
0,,Winter Garden,FL,United States,34756-3623,Lake,28.6201075846393,-81.6194681894778,Lake Apopka,,,,
N/A,,Northern Terrace Mobile Home Park,Minnesota,Canada,P0V 3B0,,51.3544378512724,-91.8431177205432,,,,,
0,,Togus,ME,United States,04478-6100,Somerset,45.6867509474793,-69.7051950558114,Moosehead Lake,,,,
N/A,,Meadow Brook,Minnesota,Canada,X0B 1B0,,69.9248403575645,-92.9618641605286,,,,,
N/A,,Breda,Minnesota,Canada,P0V 1J0,,51.6296683101405,-91.8894274616317,,,,,
N/A,,Volochayevka,Leningrad,Russia,188831,,60.717424825013,29.6308000763951,,,,,
N/A,,Tung-t’ai,Nei Mongol,China,101304,,43.3085831643825,116.672664914024,Dalai Nur,,,,
N/A,,Rocher Fendu,Ontario,Canada,K0H 0B3,,54.2893953808387,-76.7972386898574,,,,,
N/A,,Wiseton,Saskatchewan,Canada,S0M 2A0,,55.9245881070551,-107.652550588239,,,,,
0,,Georgetown,FL,United States,32139-3112,Putnam,29.3549876280235,-81.6211717161196,Lake George,,,,
0,,Ticaboo,UT,United States,84533-8002,San Juan,37.4239498988933,-110.690188590696,Lake Powell,,,,
N/A,,Koykinitsy,Karelia,Russia,186532,,63.602634817094,34.7911209706642,Lake Vygozero,,,,
N/A,,Kyesimira,Mukono,Tanzania,,,-1.26682942510266,32.8656911023784,Lake Victoria,,,,
N/A,,Woodland Terrace Mobile Home Park,Minnesota,Canada,L0R 1A0,,53.1556519451911,-93.5410914329525,,,,,
N/A,,Marcell,Minnesota,Canada,R0B 1H0,,69.7555809844638,-93.6936680987843,,,,,
N/A,,Pavshino,Vologda,Russia,160541,,59.6663977090894,39.4288070961459,Ozero Kubenskoye,,,,
N/A,,Ruch’i,Murmansk,Russia,175342,,66.6991982524556,32.1918822380019,Lake Kovdozero,,,,
N/A,,Srŏk Kândiĕng,Pouthisat,Cambodia,15108,,12.8181996940206,104.028409421416,Tonle Sap,,,,
N/A,,Ash Lake,Minnesota,Canada,P0V 1V0,,53.0443823051353,-92.9201429622831,Sandy Lake,,,,
N/A,,Akzhal,Qaraghandy,Kazakhstan,100817,,49.8720201070373,75.5763443791557,Qarasor Kli,,,,
N/A,,Ryan's Corner,Quebec,Canada,K7R 3L2,,54.3568047659519,-76.9345326036436,,,,,
N/A,,Paino,Western Finland,Finland,36100,,61.3784194724872,24.0734880472161,,,,,
N/A,,Deer Lake,Ontario,Canada,P0X 1K0,,71.5470810621871,-94.0432287154957,,,,,
0,,Dolan Springs,AZ,United States,86406-9047,La Paz,34.4227604407223,-114.277659495405,Lake Havasu,,,,
N/A,,Risti-Lakshi,Karelia,Russia,186804,,66.9042228670029,31.0295203006273,,,,,
N/A,,Müggelheim,Berlin,Germany,12559,,52.4418189368968,13.6547722244738,,,,,
0,S Jetty Rd,Alpine,UT,United States,84601-8238,Utah,40.2192316501356,-111.77425995799,Utah Lake,,,,
N/A,,Dorval-Lodge,Quebec,Canada,K8A 7R5,,48.6339245883215,-77.0693430016953,,,,,
N/A,,Longue-Pointe-de-Mingan,Quebec,Canada,C0B 1K0,,54.2749715386093,-64.143963677347,Smallwood Reservoir,,,,
N/A,,Canada,Northwest Territories,Canada,T0G 0P0,,65.3167171293818,-113.644779792156,Point Lake,,,,
N/A,,Topley,British Columbia,Canada,V0J 2Y0,,66.8890631144556,-126.301743286634,,,,,
N/A,,Halfmoon Bay,British Columbia,Canada,V0N 1Y1,,55.9613836229466,-123.913296932441,Williston Lake,,,,
N/A,,Galdun,Irkutsk,Russia,678431,,74.1030447780714,99.7983932362257,,,,,
N/A,,Arumäe,Ida-Viru,Russia,181270,,59.2551710234864,28.0167028060345,,,,,
N/A,,Fort Saint Charles,Minnesota,Canada,X0C 0J0,,62.2089678571892,-94.9715784341069,,,,,
N/A,,City of Pekin,North Dakota,Canada,R3C 1M4,,72.6080429674014,-98.3231851055657,,,,,
N/A,,Ust’-Dep,Amur,Russia,676417,,54.3074987746573,127.702376458789,Zeya Reservoir,,,,
N/A,,Saint-Maurice-de-Dalquier,Quebec,Canada,K0J 2C0,,54.4521787431425,-77.9857321655376,,,,,
N/A,,Seninsk,Omsk,Russia,646047,,62.0896032036373,72.9334116165757,,,,,
N/A,,Shashulü,Hubei,China,437611,,30.0667600874279,114.4357264977,,,,,
N/A,,Dalakaynar,Zhambyl,Kazakhstan,081111,,45.9029613988575,73.9536678690764,Lake Balkhash,,,,
N/A,,Arborfield,Saskatchewan,Canada,S0E 0A0,,54.7695032721905,-103.656467187475,,,,,
N/A,,Sinamalima,Southern,Zambia,,,-17.2347586834236,27.5853322567855,Lake Kariba,,,,
N/A,,Hassandera Kebir,Somali,Ethiopia,,,11.3819971177452,41.592115795966,Lake Adobed,,,,
N/A,,Carlton,Saskatchewan,Canada,S0K 1K0,,72.0742872138799,-106.506185031434,,,,,
N/A,,Aladji Ibrahim,Extrême-Nord,Cameroon,,,13.0626691016034,14.536013035928,Lake Chad,,,,
N/A,,Dawuzhou,Hubei,China,437513,,30.0183371885147,114.222800192129,Huangtang Hu,,,,
0,,Windsor Mills,OH,United States,44004-2818,Lake Erie,42.2469589398821,-80.9666995691615,Lake Erie,,,,
N/A,,Sainte-Gertrude,Quebec,Canada,J0Y 2G0,,54.7824552937843,-78.3084745093221,,,,,
N/A,,Youngtown,North Dakota,Canada,R8A 1J3,,55.1711631236616,-101.403451087115,,,,,
N/A,,Girvas,Karelia,Russia,186215,,63.3452133879174,33.6674652500611,Lake Segozerskoye,,,,
N/A,,Xujiazui,Anhui,China,211304,,31.1124886490632,118.972203046624,,,,,
0,,Fort Steele,MT,United States,59337-9624,Garfield,47.6932840200723,-106.937870349536,Fort Peck Lake,,,,
N/A,,Mariarotu,Papua,Australia,5603,,-31.713647004649,136.022134901906,Lake Gairdner,,,,
N/A,,Lancaster,Minnesota,Canada,R0A 1J0,,54.2368513841457,-96.7950419585328,,,,,
N/A,,Island Cottage Beach,New York,Canada,K0L 1G0,,43.8490357017962,-77.6453632715263,Lake Ontario,,,,
N/A,,Zhakay,West Kazakhstan,Kazakhstan,090110,,49.0442681815431,48.2074462491273,,,,,
N/A,,Zavety Il’icha,East Kazakhstan,Kazakhstan,071812,,46.1165225730915,81.7117567125042,Alakol,,,,
N/A,,Molozhva,Pskov,Russia,181512,,58.0479837381194,27.8450214449235,Pskoyskoye Ozero,,,,
N/A,,Sungailangir,Kalimantan Timur,Indonesia,83662,,-0.256571740786754,116.445259854359,Kenohan Jempang,,,,
N/A,,Länsi-Teisko,Western Finland,Finland,34180,,61.7572661041056,23.7034673863498,Pyhjrvi,,,,
N/A,,Glowe,Brandenburg,Germany,03096,,52.0650328541683,14.2093755930225,,,,,
N/A,,Huron Mountain,Michigan,Canada,P0T 3A0,,52.2364999582225,-87.8680305126143,,,,,
N/A,,Emelinvara,Karelia,Russia,173530,,67.6442542826119,31.7176651192826,Lake Imandra,,,,
N/A,,Gabrish,Murmansk,Russia,186821,,66.2894433874884,31.85874025938,,,,,
N/A,,Anchorville,Michigan,Canada,N0P 2G0,,42.5040860049316,-82.6838185814964,Lake St. Clair,,,,
N/A,,"Campillo de la Jara, El",Castilla-La Mancha,Spain,06656,,39.3181830569856,-5.03670246174087,Embalse de Garcia  de Sola,,,,
N/A,,Les Escoumins,Quebec,Canada,G0L 3W0,,54.7627328972664,-69.4057559832314,,,,,
N/A,,Mykolayivka,Odessa,Ukraine,67703,,46.240744234741,30.3295409020895,,,,,
N/A,,Verkh Uryum,Novosibirsk,Russia,632304,,54.9832116284881,78.591353227985,Ozero Sartlan,,,,
0,,Foreston,SC,United States,29431-8693,Berkeley,33.3071203988933,-80.0589888541839,Lake Moultrie,,,,
N/A,,Orient,Ontario,Canada,K4K 1W2,,50.3547772755333,-75.1835208342115,,,,,
0,Ni Gig Trl NW,Turtle Lake,MN,United States,56633-2092,Cass,47.1762334307655,-94.4441194039224,Leech Lake,,,,
N/A,,Alhuampa,Santiago del Estero,Argentina,G2356,,-30.7281159070122,-62.570555950463,Mar Chiquita,,,,
0,,Richardton,ND,United States,58770-9411,Mountrail,47.8230986001373,-102.316042141072,Lake Sakakawea,,,,
N/A,,Bellechasse Regional County Municipality,Quebec,Canada,G3Z 0B4,,54.7525773348804,-70.7214075790988,,,,,
1191,Heron Dr N,Sanford,FL,United States,33857-9751,Highlands,27.3727395959189,-81.2705936102356,Lake Istokpoga,,,,
N/A,,Graham,Ontario,Canada,P0T 1N0,,48.8831038219385,-90.5731122328387,Lac des Mille Lacs,,,,
N/A,,Saint-Joseph,Quebec,Canada,K7V 4L5,,50.888459438023,-77.0078462281037,,,,,
N/A,,Buffalo Creek,British Columbia,Canada,V0K 1G0,,60.5868743346301,-121.143750279812,Trout Lake,,,,
N/A,,Ējersa,Oromia,Ethiopia,,,8.39331813497735,39.0599741744212,Lake Koka,,,,
0,,Sanford,FL,United States,33898-1607,Osceola,27.8887599107807,-81.2657783774981,Lake Kissimmee,,,,
0,State Hwy 1806,Kenel,SD,United States,57601-5009,Campbell,45.5793080410762,-100.485917101634,Lake Oahe,,,,
N/A,,Ban Kang,Vientiane,Laos,,,18.6030435204122,102.642799028551,Nam Ngum Reservoir,,,,
N/A,,Zekhina,Irkutsk,Russia,678431,,74.5136091443883,105.690415322429,,,,,
0,,Round Mountain,OR,United States,97601-9142,Klamath,42.4390315328355,-121.948671369913,Upper Klamath Lake,,,,
N/A,,Kaukola,Western Finland,Finland,32450,,61.3363254023073,22.8503878155731,,,,,
N/A,,City of Gardena,North Dakota,Canada,R0J 1J0,,63.6678364712537,-100.506977291747,,,,,
N/A,,Skärv,Vastra Gotaland,Sweden,542 75,,58.8826532206013,13.5935890349948,Vänern,,,,
N/A,,Bonaventure,Quebec,Canada,G0E 0A8,,55.8814637624304,-65.4888268262943,,,,,
N/A,,Dobo-Yenkhor,Buryat,Russia,666515,,53.6310500105087,108.158667462717,Lake Baikal,,,,
N/A,,Bolesławice,West Pomeranian,Poland,70-843,,53.4710631074127,14.6746167074441,Jezioro Dabie,,,,
N/A,,El Cobano,Jalisco,Mexico,45345,,20.9407362360283,-103.629371582622,,,,,
N/A,,Murtoranta,Eastern Finland,Finland,81810,,63.1577034389345,29.9005205035888,Pielinen,,,,
N/A,,Yarsomovy,Khanty-Mansiy,Russia,646882,,61.7114924823366,73.363762541886,,,,,
N/A,,Saint-Anselme,Quebec,Canada,G7H 5A7,,50.7661511431998,-70.9802957929978,,,,,
N/A,,Northfield,Nova Scotia,Canada,B2Z 1P9,,44.2091902113418,-65.151659193813,Lake Rossignol,,,,
N/A,,Guandi,Hubei,China,437611,,30.0679375439364,114.43993099865,,,,,
N/A,,Haftorsbygget,Dalarna,Sweden,669 31,,61.5336965495491,13.4445018656051,,,,,
N/A,,Alía,Extremadura,Spain,06611,,39.2292850905918,-5.16204261118856,Embalse de Orellana,,,,
N/A,,Saint-Jovite,Quebec,Canada,J8E 1E7,,48.5425245268471,-74.6028764665434,Réservoir Gouin,,,,
N/A,,Retorno el Diablo,Veracruz,Mexico,96343,,18.0371284860015,-94.4533019615728,,,,,
N/A,,Gornyy,Khanty-Mansiy,Russia,646015,,68.034728297252,71.1560570850281,Ozero Yarroto Vtoroye,,,,
N/A,,Barstow,Washington,Canada,V0G 1J0,,49.5789806184777,-118.138879993687,Lower Arrow Lake,,,,
N/A,,Pemberton Ridge,New Brunswick,Canada,E6H 1Z6,,45.6808636649366,-67.7475298834911,Chiputneticook Lakes,,,,
N/A,,Bear Creek,Yukon,Canada,Y0B 1L0,,61.438469754422,-137.112332000529,Aishik Lake,,,,
N/A,,Hagar,Ontario,Canada,P0M 1X0,,70.6142411433068,-80.414955924623,,,,,
N/A,,Reith,Coahuila,Mexico,26825,,29.548384859549,-101.225920433054,Amistad Reservoir,,,,
N/A,,Saint-Stanislas,Quebec,Canada,G8L 7A8,,64.6027369390239,-72.1571283215006,,,,,
0,,King Salmon,AK,United States,99613-0635,Bristol Bay,58.6262620658696,-155.909288628958,,,,,
N/A,,Newcastle Creek,New Brunswick,Canada,E4B 2H9,,45.9842058979458,-66.0174626041462,Grand Lake,,,,
N/A,,Bellis,Alberta,Canada,T0A 0J0,,70.9452536042664,-112.154297924335,,,,,
0,Old Kasigluk Main Rd,Pilot Station,AK,United States,99609-9998,Bethel,61.0761075139229,-162.866150466182,,,,,
N/A,,Northern America,Saskatchewan,Canada,S6V 5S7,,59.0997467643609,-105.643663588251,Black Lake,,,,
N/A,,Sondaly,Karelia,Russia,186134,,63.7798420216273,33.3770971432334,Ondozero,,,,
N/A,,British Columbia,British Columbia,Canada,V9J 1V7,,67.4683717166507,-124.995188029747,,,,,
N/A,,Voynitsa,Karelia,Russia,186724,,64.566088605196,30.3057107879794,,,,,
0,,Port Alsworth,AK,United States,99653-9998,Kenai Peninsula,60.2418795776318,-154.322352064415,Lake Clark,,,,
0,S Lake Louise Rd,Cordova,AK,United States,99588-0004,Matanuska-Susitna,62.3989799012526,-146.663449400862,Lake Louise,,,,
N/A,,Ferme-Limbour,Quebec,Canada,J8N 9K3,,46.863177181561,-75.7452668641015,Réservoir Baskatong,,,,
N/A,,Mengudo,Oromia,Ethiopia,,,11.5547888603715,41.6607637371668,Lake Gemeri,,,,
N/A,,Penawai,Kalimantan Timur,Indonesia,76282,,-0.446142238659561,116.191778482843,,,,,
N/A,,Peachland,British Columbia,Canada,V0H 1X5,,68.5026200773278,-119.734194518978,Bluenose Lake,,,,
0,,Soldotna,AK,United States,99610-9609,Kenai Peninsula,60.1709378229931,-150.845026112593,,,,,
N/A,,Rivière-Saint-Jean,Quebec,Canada,G0G 2N0,,55.9884651226427,-64.3294331179846,,,,,
0,,Manning,SC,United States,29148-9438,Clarendon,33.4996345380374,-80.2192782691656,Lake Marion,,,,
N/A,,Donghu,Xinjiang Uygur,China,838205,,40.5100634077417,90.2941093135216,Lop Nur,,,,
0,Winter Trl,Grayling,AK,United States,99626-9998,Bethel,61.374739920898,-160.033855606698,,,,,
N/A,,Grosse Isle,Manitoba,Canada,R0C 1P0,,66.429560712003,-97.4500802641252,,,,,
N/A,,Novorossiyka,Novosibirsk,Russia,632968,,54.5772834971735,77.9677849961407,,,,,
N/A,,Ndaro,Orientale,Uganda,,,1.70933908226209,31.0106470865374,Lake Albert,,,,
0,Pulayaraq Rd,Nunapitchuk,AK,United States,99641-0078,Bethel,60.9077312332036,-162.365234352754,,,,,
0,Indian Prairie,Okeechobee,FL,United States,34974-0478,Glades,26.9417905137981,-80.8461673315162,Lake Okeechobee,,,,
N/A,,Kibaoni,Arusha,Tanzania,,,-3.58744902134517,35.8049431974693,Lake Manyara,,,,
0,,Mountain Village,AK,United States,99632-0234,Wade Hampton,61.5700505192499,-163.770003253832,,,,,
N/A,,Leijia,Hubei,China,421223,,29.9384173279985,114.040717629619,,,,,
N/A,,Shuidong,Jiangsu,China,215559,,31.4161252461995,120.789929284076,,,,,
N/A,,Atekb,West Kazakhstan,Kazakhstan,090412,,48.8248197247664,50.0075308545456,,,,,
N/A,,Port Mourant,East Berbice-Corentyne,Canada,A8A 1S3,,49.0052649346981,-57.3413306119143,Grand Lake,,,,
N/A,,E’arida,Qinghai,China,816105,,34.930685742088,97.2557986141082,Gyaring Hu,,,,
N/A,,Tokiya,Irkutsk,Russia,671374,,74.1510261307939,107.124339866307,Ozero Portnyagino,,,,
N/A,,Sainte-Flavie,Quebec,Canada,G5C 2T1,,56.9242486827943,-68.2257210178203,,,,,
N/A,,Belgrade,Minnesota,Canada,X0C 0G0,,63.0835236788974,-92.3830475051048,,,,,
N/A,,Vodosalma,Karelia,Russia,174150,,65.0392789395601,30.7383511258125,Lake Srednye Kuyto,,,,
N/A,,Las Pozas,Chontales,Nicaragua,61556,,11.5717147976815,-85.3084447027541,Lago de Nicaragua,,,,
0,,Amarillo,TX,United States,79036-4000,Potter,35.6109612398893,-101.689025922872,Lake Meredith,,,,
N/A,,Shia,Kilimanjaro,Tanzania,,,-3.68959337345986,37.4105004753957,Lake Lembeni,,,,
N/A,,Gunibuy Community,Western Australia,Australia,6743,,-16.4321748907991,128.691265149854,Lake Argyle,,,,
N/A,,Bozan,Konya,Turkey,71460,,38.82512314404,33.3122277514895,Lake Tuz,,,,
N/A,,Terekty,East Kazakhstan,Kazakhstan,071217,,48.7463716848858,85.7410520545012,Marqakl,,,,
0,,Sumach,WA,United States,98816-9338,Chelan,48.0877319504287,-120.450921821976,Lake Chelan,,,,
N/A,,Overly,North Dakota,Canada,R0L 0N0,,53.9480801754295,-100.15037166727,,,,,
N/A,,Chirvis-Guba,Murmansk,Russia,216620,,65.6416951257351,32.1541695244003,Lake Topozero,,,,
N/A,,Margo,Saskatchewan,Canada,S0E 0V0,,58.1189254927582,-103.340301534505,Wollaston Lake,,,,
0,,Hugo,NM,United States,88426-9721,Quay,35.3837121337437,-103.474469206773,Ute Reservoir,,,,
N/A,,Island Falls,Saskatchewan,Canada,S0A 0E0,,57.2197902664345,-102.344239742893,Reindeer Lake,,,,
N/A,,Stirling North,South Australia,Australia,5710,,-31.0389644252633,137.833135019221,Lake Torrens,,,,
N/A,,Ban Dan Mae Chalaep,Kanchanaburi,Thailand,63120,,14.717142678147,99.0405020448,Chao Nen Dam,,,,
N/A,,Lylyvaara,Eastern Finland,Finland,75970,,62.909407297699,30.7053617458042,Koitere,,,,
N/A,,Kurkurmeysa,Jubbada Hoose,Somalia,,,0.042502212379006,42.3931721942281,,,,,
N/A,,Bab’ya Guba,Karelia,Russia,188769,,64.4661519840348,30.1807461839801,,,,,
N/A,,Nary,Minnesota,Canada,P0X 1S0,,49.4238507234794,-94.8218326539695,Lake of the Woods,,,,
N/A,,Chens-sur-Léman,Rhône-Alpes,France,74140,,46.3583427035301,6.25573208556318,Lake Geneva,,,,
N/A,,Tambitsy Rechka,Karelia,Russia,162910,,61.8904658716327,35.5581705402085,Lake Onega,,,,
N/A,,Estancia Pudeto,Magallanes y Antartica Chilena,Argentina,Z9051XAK,,-50.648177936203,-72.9880964476431,,,,,
0,,Roy,NM,United States,88416-9998,San Miguel,35.4627489018785,-104.190215581894,Conchas Lake,,,,
N/A,,Gärdnäsbyn,Jamtland,Sweden,840 50,,64.1947482588194,15.2341754900482,,,,,
N/A,,Öreghegy,Veszprem,Hungary,8242,,46.8833411242695,17.8228033337728,Lake Balaton,,,,
N/A,,Cheldak,Omsk,Russia,646124,,67.9526007057823,71.6009608796312,Ozero Yarroto Pervoye,,,,
26734,Sky Harbour Rd,O Neals,CA,United States,93626-9734,Madera,37.0305322429818,-119.633943655653,Millerton Lake,,,,
N/A,,Everard,Ontario,Canada,P0T 1G0,,49.8325753140017,-88.3486154067918,Lake Nipigon,,,,
N/A,,Uchinskiy Rybouchastok,Khanty-Mansiy,Russia,626036,,62.6250515508898,65.1560527578453,Ozero Untor,,,,
N/A,,Nkalanga,Karonga,Mozambique,2306,,-11.9497451449016,34.5146291819953,Lake Malawi,,,,
N/A,,Keski-Säviä,Eastern Finland,Finland,44950,,63.1587337133795,26.5674488869358,,,,,
N/A,,Deganya Alef,HaZafon,Israel,15105,,32.8043464697524,35.5832402129166,Sea of Galilee,,,,
N/A,,City of Munich,North Dakota,Canada,R0H 0A0,,50.9970798009346,-98.8446788308353,Lake Manitoba,,,,
N/A,,Ñancul,Los Rios,Chile,3560000,,-40.2028140669993,-72.4146446306619,Lago Ranco,,,,
N/A,,Novokazarino,Novosibirsk,Russia,632842,,54.5803743205084,77.810824809107,,,,,
N/A,,Dauphin,Manitoba,Canada,R7N 0A1,,52.3800024701991,-100.044725309626,Lake Winnipegosis,,,,
N/A,,Panjukhru,Himachal Pradesh,India,176023,,32.0247230790442,76.035751829237,,,,,
N/A,,Simpson,Montana,Canada,T9M 1G9,,59.0354282025826,-110.20125956507,Lake Athabasca,,,,
N/A,,Puerto Prat,Magallanes y Antartica Chilena,Argentina,Z9301XAK,,-49.5970036382158,-72.6437947360833,Lago Viedma,,,,
N/A,,Nagana,KwaZulu-Natal,South Africa,B-3950,,-27.4069526426492,31.9682979493408,,,,,
N/A,,Al Maḑīq,Aswan,Egypt,,,22.7969964217206,32.5797895587525,Lake Nasser,,,,
N/A,,Tarmakul’,Novosibirsk,Russia,632228,,54.829995100316,76.977496240777,Lake Chany,,,,
N/A,,Sainte-Euphémie-sur-Rivière-du-Sud,Quebec,Canada,G0R 1H0,,49.619897232149,-70.4408040160932,Réservoir Pipmuacan,,,,
N/A,,Seagoe,Northern Ireland,United Kingdom,BT41 3LY,,54.6170226543363,-6.41520206812821,Lough Neagh,,,,
N/A,,Majavatn,Nordland,Norway,8897,,64.7256339621014,13.3766791686826,,,,,
N/A,,Drag,Nordland,Sweden,840 64,,66.8412289437967,16.0861517037223,,,,,
N/A,,Verkhniy Zhirim,Buryat,Russia,671123,,74.6090567126107,107.218013573932,Ozero Kungasalakh,,,,
N/A,,Domaine-Beauport,Quebec,Canada,J5M 1A2,,50.7149317850789,-73.8378699921617,Lake Mistassini,,,,
N/A,,Khiyetala,Karelia,Belarus,213421,,63.4826814352879,31.2151016992245,,,,,
N/A,,Novopavlovka,West Kazakhstan,Kazakhstan,130300,,50.5528843330929,51.6839767393417,,,,,
N/A,,Zhamanterekty,Almaty,Kazakhstan,040218,,46.6237119641393,80.6390696817395,Sasyqkl,,,,
N/A,,Nizhnyaya Teya,Khakass,Russia,662060,,55.5907791868878,89.5760022029909,Ozero Beloye,,,,
N/A,,Buritama,Sao Paulo,Brazil,15290-000,,-21.35144100136,-50.1516454831556,,,,,
N/A,,Luojia Taizi,Hunan,China,414101,,29.3206942072127,112.905972750087,,,,,
N/A,,Noljakka,Eastern Finland,Finland,80140,,62.8611315808494,29.692318246241,Rikkavesi,,,,
N/A,,Mendaba,Amhara,Ethiopia,,,11.961747266131,37.2791252577465,Lake Tana,,,,
0,FM 2261,Grand Cane,TX,United States,75973-4636,Sabine,31.5852374372366,-93.8041575930339,Toledo Bend Reservoir,,,,
N/A,,Chasha,Tyumen',Russia,169915,,70.0774681574823,70.3303213228656,Ozero Neyto,,,,
N/A,,Balas,Batangas,Philippines,4220,,14.0240623408155,120.992594616219,Lake Taal,,,,
N/A,,Wu-lu-k’o-li,Xinjiang Uygur,China,841403,,41.9787932200652,87.0637809222392,Bosten Hu,,,,
N/A,,Bengrichazongcun,Xizang,China,816004,,35.5946240308335,91.164838071588,Hoh Xil Hu,,,,
N/A,,Zhaitang,Zhejiang,China,311708,,29.6078464132296,118.988722395966,Xinanjiang Shuiku,,,,
0,US Hwy 26,West Yellowstone,ID,United States,83428-5028,Bonneville,43.2399963227608,-111.097361222756,Palisades Reservoir,,,,
N/A,,Nkoso,Équateur,Congo D.R.,,,-0.818660041544675,18.0200903342623,Lac Tumba,,,,
N/A,,Aygırgölü,Bitlis,Turkey,13500,,38.657335591575,42.8161387268068,Lake Van,,,,
N/A,,Chachacomani,Puno,Peru,21390,,-15.9204228557807,-69.3539084730892,Lago Titicaca,,,,
N/A,,Husići,Bar,Montenegro,,,42.2091331495457,19.2914706609444,Lake Skadar,,,,
0,,Wheatland,WY,United States,82213-9708,Platte,42.5447082544758,-104.955391321509,Glendo Reservoir,,,,
N/A,,Īl’īchevka,Pavlodar,Kazakhstan,141006,,53.2800207889042,77.4372117708364,Iken Zhbolat Lake,,,,
0,,Burke,SD,United States,57325-6804,Brule,43.5228802489344,-99.2947811910652,Lake Francis Case,,,,
N/A,,Dalingcun,Jiangxi,China,344416,,28.5151667733169,116.308193038092,,,,,
0,,Pine Meadows,NY,United States,13042-2104,Oswego,43.2186549235438,-75.9018279406086,Oneida Lake,,,,
N/A,,Lievola,Oulu,Finland,77700,,64.4869046549976,26.8252597353223,,,,,
N/A,,Kirkkola,Eastern Finland,Finland,19120,,61.6914757216917,26.0100878234235,,,,,
0,,Kortes Dam,WY,United States,82620-8804,Natrona,42.3826608024898,-106.888424176784,Pathfinder Reservoir,,,,
N/A,,Jicangma,Xizang,China,853400,,32.0295800871419,91.474491428061,,,,,
0,,Ninole,AK,United States,99606-0158,Lake and Peninsula,59.5598378950677,-155.194920057246,Iliamna Lake,,,,
N/A,,Mikkilyan,Karelia,Russia,186900,,63.0034566363175,32.2405382310238,,,,,
N/A,,Mantilhue,Los Rios,Chile,4020000,,-40.6561348227821,-72.4839587088796,,,,,
0,Jeep Trl,Takotna,AK,United States,99579-0218,Kodiak Island,57.8542921424668,-156.198293391047,,,,,
N/A,,Aldermans Outstation,South Australia,Australia,5330,,-30.6798401901626,139.800329749499,Lake Frome,,,,
N/A,,Hotakka,Oulu,Finland,83950,,64.2106439216845,29.628335929461,,,,,
N/A,,Las Gaviotas (Baja California),Chiapas,Mexico,29617,,17.1140025833166,-93.4848911064959,Presa Nezahualcyotl,,,,
0,,Cotulla,TX,United States,78076-2200,Zapata,26.8118287516695,-99.2312839052016,Falcon Lake,,,,
N/A,,Skacka,Vastra Gotaland,Sweden,563 32,,58.3302789360387,14.4726866020948,Vättern,,,,
N/A,,Qoikang,Xizang,China,850700,,28.989387382126,90.8968465794366,Yamzho Yumco,,,,
N/A,,Södra Bomansberg,Dalarna,Sweden,792 75,,60.8643125244517,14.7454554037826,Siljan,,,,
N/A,,Novoilimsk,Irkutsk,Russia,665697,,67.4234811872631,103.67938795798,,,,,
N/A,,Mugen,Tyumen',Russia,169915,,70.046707106197,70.7973099682238,Ozero Yambuto,,,,
N/A,,Wuyicun,Nei Mongol,China,061302,,48.9608159515012,117.400697430298,Hulun Nuur,,,,
N/A,,San Antonio Arenillas,Puebla,Mexico,72595,,18.9452418182027,-98.1693915990855,Presa Manuel vila Camacho,,,,
N/A,,Qyzylzhuldyz,East Kazakhstan,Kazakhstan,040216,,46.5823538042773,80.9950395376142,Sasyqkl,,,,
N/A,,Departamento de Zonda,San Juan,Argentina,U9223,,-45.4626594726515,-68.9003783332993,Lago Colhu Huapi,,,,
N/A,,Stanovishche Vedenskoye,Krasnoyarsk,Russia,663253,,66.6122136528882,88.4083834876386,Munduyskoye Ozero,,,,
N/A,,Mustalampi,Eastern Finland,Russia,187030,,63.7580590762196,30.9985581843863,,,,,
N/A,,Koshterek,Jalal-Abad,Kyrgyzstan,723326,,41.7958459150528,72.9559794188945,Toktogul Suu Saktagychy,,,,
N/A,,Vannila,Eastern Finland,Finland,83150,,62.3271550542325,29.5353548497055,Lake Saimaa,,,,
N/A,,Svīnchatka,East Kazakhstan,Kazakhstan,071713,,47.7269887126289,84.2230559570121,,,,,
0,Quiet Walk Rd,Tahoe Vista,CA,United States,96142-2500,Carson City,39.0985874181454,-120.046055156602,Lake Tahoe,,,,
N/A,,Sel’tso-Shatërno,Novgorod,Russia,175210,,58.315266365555,31.3176641487166,Lake Il'Men',,,,
N/A,,Estado de Tamaulipas,Tamaulipas,Mexico,87250,,23.9576741750008,-98.7457218414528,Presa Vicente Guerrero,,,,
N/A,,Kaidor,Xizang,China,859300,,30.9152646838849,85.6053592835988,,,,,
N/A,,Letychiv,Khmel'nyts'kyy,Ukraine,31522,,49.429738006022,27.6293708889838,,,,,
N/A,,La Lagunita,Sonora,Mexico,85214,,27.9798656081279,-109.779347069801,Presa Alvaro Obregon,,,,
N/A,,Lucun,Shandong,China,271512,,36.0108549065977,116.185415547674,Dongping Hu,,,,
N/A,,Santa Isabel,Para,Suriname,,,4.62369112292919,-57.4281456799992,,,,,
N/A,,Saint-Siméon,Quebec,Canada,G0L 1M0,,54.1672342680791,-69.8718934056745,Réservoir de Caniapiscau,,,,
N/A,,Zemlyanyye Gory,Karelia,Russia,242675,,62.6166621732665,34.095456991433,,,,,
N/A,,Kraka,Brokopondo,Suriname,,,4.73113402933224,-55.1116941665799,Professor Doctor Ingenieur W. J. Van Blommestein Meer,,,,
N/A,,Unterzell,Baden-Württemberg,Germany,72116,,47.7024093080133,9.05178845577132,,,,,
N/A,,Krokvik,Norrbotten,Sweden,922 63,,68.1342233722225,20.0757280558342,Torneträsk,,,,
N/A,,Molco,Araucania,Chile,3910000,,-39.2387715506431,-72.0949541901054,,,,,
N/A,,Taipingzha,Hubei,China,430209,,30.2065830478154,114.110846622723,,,,,
N/A,,Langjian,Xizang,China,856900,,31.9083020667636,87.5150462257101,,,,,
N/A,,Baying,Hebei,China,072659,,40.3213760022503,115.643226686256,Guanting Shuiku,,,,
N/A,,Chederta,West Kazakhstan,Kazakhstan,090103,,49.4597631469894,52.3916979141606,,,,,
N/A,,Sedboro,Tipperary,Ireland,,,52.9476836893726,-8.30737357769448,Lough Derg,,,,
N/A,,Kabombo,Northern,Zambia,,,-11.1427458903702,29.7661309737593,Lake Bangweulu,,,,
N/A,,Buch’īsī,Oromia,Ethiopia,,,6.31039757139365,37.9453567589948,Lake Abaya,,,,
N/A,,Malaya Bicha,Tyumen',Russia,646595,,70.1669548521303,70.4611511789626,,,,,
N/A,,Jiaojiagou,Xinjiang Uygur,Mongolia,83207,,48.5516498147882,88.5880846709416,,,,,
N/A,,Bradbury,Maine,Canada,A2V 0A4,,53.7386400989754,-68.8382848865549,Lac Bermen,,,,
N/A,,Voronovka,Novosibirsk,Russia,632766,,54.9262521698881,77.7620446741257,,,,,
N/A,,Alyamese,Kaberamaido,Uganda,,,1.63177413476289,33.1565571132648,,,,,
N/A,,El Chaltén,Santa Cruz,Chile,5370000,,-48.7766108158998,-72.8901387562275,Lago San Martín,,,,
N/A,,Gülmutsay,Xinjiang Uygur,China,841801,,37.0788079598314,88.4233866090543,Aqqikkol Hu,,,,
N/A,,Oshirovskiy,Omsk,Russia,646391,,56.1322619987465,71.8982172209695,Ozero Tenis,,,,
N/A,,São Sebastião,Para,Brazil,78578-000,,-1.53352332428395,-56.1573161929661,Lago de  Erepecu,,,,
N/A,,Kwitambo,Mangochi,Malawi,,,-14.6331685278339,35.2602551405118,,,,,
N/A,,Gulod,Laguna,Philippines,1940,,14.3505121578045,121.207759815239,Laguna de Bay,,,,
N/A,,Pôrto Jejuí,Alto Parana,Brazil,85892-000,,-24.7564980419556,-54.3951051864515,Represa Itaipu,,,,
0,Encina Grande Rd,Villa Verona,CA,United States,95916-9600,Butte,39.6466934228645,-121.479442592264,Lake Oroville,,,,
N/A,,Pyatnitsa,Krasnoyarsk,Russia,662662,,68.3973849018782,91.7000159903823,Ozero Khantayskoye,,,,
N/A,,Tarratine,Maine,Canada,G0L 1W0,,54.5540287311301,-69.8512173482323,Réservoir de Caniapiscau,,,,
N/A,,Aghamore,Leitrim,Ireland,,,53.8571216601459,-7.95876125273613,,,,,
N/A,,Xiacang,Xizang,China,859500,,30.7354082022075,81.2186863308164,Langa Co,,,,
N/A,,Innokent’yevskiy,Irkutsk,Russia,678431,,74.5022025344619,100.721583470272,Lake Taymyr,,,,
N/A,,Reñihué,Los Lagos,Chile,6170000,,-46.6558644619797,-72.5081832924622,Lago Buenos Aires,,,,
N/A,,Gamonoso,Castilla-La Mancha,Spain,13117,,39.337022361122,-4.8742156201648,Embalse de Cara,,,,
2288,Hickory Ln,Grand Chute,WI,United States,54901-2528,Winnebago,44.0277147269652,-88.4232554144716,Lake Winnebago,,,,
N/A,,Lishizong,Jiangxi,China,330216,,28.4961802871169,116.149401753167,,,,,
N/A,,Malinovka Pervaya,Mariy-El,Russia,431871,,56.2542759294426,46.1411414377706,Cheboksary Reservoir,,,,
N/A,,Shonguy,Murmansk,Russia,186135,,68.2777258841992,33.1470912829795,Lake Kolozero,,,,
N/A,,Piedra El Lobo,Los Lagos,Chile,4760000,,-41.1340349831803,-72.8253291043364,Lago Llanquihue,,,,
N/A,,Lanjiacun,Anhui,China,246421,,30.1719952628775,116.454846660469,Po Hu,,,,
0,,Worland,WY,United States,82649-8810,Hot Springs,43.3156479034336,-108.169470581289,Boysen Reservoir,,,,
N/A,,Kharsuvara,Karelia,Russia,188672,,62.0043847888327,30.9611819112339,,,,,
N/A,,Makovskoye,Krasnoyarsk,Russia,662134,,68.9540274662842,90.8669480921539,Ozero Sobachye,,,,
N/A,,Molokan,Buryat,Russia,678431,,72.990937105768,109.522844245541,Ozero Kiyeng-Kyuyel,,,,
N/A,,Ballybay,Roscommon,Ireland,,,53.5665842666669,-8.00581715372322,Lough Ree,,,,
N/A,,Lugovaya,Khakass,Mongolia,85235,,49.4777193587445,90.5286645719432,Achit Nuur,,,,
N/A,,Päätalo,Lapland,Finland,98810,,69.068682293802,27.8958543167737,Inarijrvi,,,,
0,,Overlook,TN,United States,38222-4979,Stewart,36.4806600534998,-88.0462488431568,Kentucky Lake,,,,
N/A,,Fayfā,Karak,Israel,86814,,31.1666516484554,35.4497280690985,Dead Sea,,,,
N/A,,Voskresenka,Kurgan,Russia,641611,,55.7863841493668,67.3843811608756,Ozero Chërnoye,,,,
N/A,,Marda,Western Australia,Australia,6355,,-29.2305384102299,119.27332001998,Lake Barlee,,,,
N/A,,Ênio Pepino,Sao Paulo,Brazil,87730-000,,-21.9472339946745,-52.3357571467686,Represa Porto Primavera,,,,
N/A,,Aduku,Apac,Uganda,,,1.73995295148379,32.7172481791347,Lake Kwania,,,,
N/A,,Pelgostrov,Karelia,Russia,162944,,62.3256832335969,36.8941928890167,,,,,
N/A,,Zhaunger,Almaty,Kazakhstan,040215,,46.0948868097473,81.3734781417772,,,,,
N/A,,Vetelä,Oulu,Finland,93680,,64.0836258008272,28.6909548712185,,,,,
N/A,,Saint-Bernard-sur-Mer,Quebec,Canada,X0A 0R0,,66.4978531894976,-70.381744134619,Nettilling Lake,,,,
N/A,,Qaynar,Aqmola,Kazakhstan,021208,,50.0202324450481,69.233989941324,Qiyakty Kli,,,,
N/A,,Yanhu,Qinghai,China,816004,,36.9648890426314,95.2237348069285,,,,,
N/A,,Munozero,Karelia,Russia,187642,,62.596498230558,33.7932213803214,,,,,
N/A,,Bor,Krasnoyarsk,Russia,655239,,68.779175174768,89.9561513444963,Ozero Keta,,,,
N/A,,Dentu,Volta,Egypt,,,7.72776084353265,0.065041304184992,Lake Volta,,,,
N/A,,Annagh Upper,Leitrim,Ireland,,,54.1152789996403,-8.05092777480771,Lough Allen,,,,
N/A,,Kakstet,Jammu and Kashmir,India,172112,,33.8256428088358,78.6164483846282,Banggong Co,,,,
N/A,,Renville County,North Dakota,Canada,X0C 0A0,,63.1203191947888,-101.656513153124,Dubawnt Lake,,,,
N/A,,Sikiölä,Southern Finland,Finland,57100,,61.6114086791119,28.8770569533104,,,,,
N/A,,Retiro do Presidente,Mato Grosso,Bolivia,,,-17.5347157289708,-57.7821860720814,,,,,
N/A,,Yuzhnyy Gornyak,Chelyabinsk,Russia,457375,,55.3888453956755,60.3807138846445,,,,,
0,,Seneca,GA,United States,30643-2409,Hart,34.4819276302758,-82.9489388033639,Hartwell Lake,,,,
N/A,,Ponemah,Minnesota,Canada,X0C 0A0,,64.1268973275156,-94.9168249817426,Baker Lake,,,,
N/A,,Zhangdonggongma,Xizang,China,859500,,30.6730030072556,81.4819457427692,Mapam Yumco,,,,
N/A,,Suotalo,Oulu,Finland,97760,,64.3323634882534,27.1347848230173,Oulujarvi,,,,
1180,Baker Davis Rd,Abbeville,GA,United States,30817-3515,Lincoln,33.8277033577257,-82.3760743551717,J. Strom Thurmond Lake,,,,
N/A,,Vaadimäe,Põlva,Russia,181514,,58.628175432696,27.4899423644427,Lake Peipus,,,,
N/A,,Sunnaryd,Jonkoping,Sweden,334 91,,56.9171839437431,13.6913752775127,Bolmen,,,,
N/A,,Craigellachie,British Columbia,Canada,T0H 3A0,,52.4084086084674,-118.715470859184,Kinbasket Lake,,,,
N/A,,Voleynvara,Karelia,Russia,186142,,65.899705283166,32.9718280132708,,,,,
N/A,,Ñirehuao,Aisen del General Carlos Ibañez del Campo,Argentina,U9039XAB,,-44.8605376506037,-71.7252836894963,Lago La Plata,,,,
N/A,,Cougie,Scotland,United Kingdom,PH34 4EU,,56.9698751224997,-4.90587313033911,Loch Lochy,,,,
N/A,,Sumzak-Ulo,Tuva,Russia,662246,,50.4844446735348,89.7087389227337,,,,,
N/A,,Luzhuang,Jiangsu,China,211703,,33.2572256793445,118.569170620568,Hongze Hu,,,,
N/A,,Xihu,Zhejiang,China,311714,,29.6293349945102,118.836480010456,,,,,
N/A,,Osen,Hedmark,Norway,2460,,61.984956756442,11.7641064825215,Femunden,,,,
N/A,,Abū Kawlān,Dhi-Qar,Iraq,,,30.7880993809641,47.0709306207828,Lake Hammar,,,,
N/A,,Konzhozero,Karelia,Russia,171873,,63.3852469092073,35.1288822272226,Lake Vygozero,,,,
N/A,,Tushemisht,Korce,Macedonia,6330,,41.043892752295,20.7259917075754,,,,,
N/A,,Luoshi Nan Lu,Hubei,China,430311,,30.5349462316308,114.348043426105,,,,,
N/A,,Reigolil,Araucania,Argentina,U9033XAD,,-44.9320681334967,-71.483431515026,Lago Fontana,,,,
N/A,,Karachagovo,Krasnoyarsk,Russia,655136,,69.4715196017817,91.0353817541202,Ozero Lama,,,,
3247,Springdale Forrest Cir,Gainesville,GA,United States,30506-4205,Hall,34.31575908051,-83.912687519128,Lake Sidney Lanier,,,,
0,,South Hero,NY,United States,12996-4154,Chittenden,44.4161281927154,-73.3244896535007,Lake Champlain,,,,
N/A,,Tarkhovo,Krasnoyarsk,Russia,662353,,69.0906124212733,91.454026736089,Ozero Sobachye,,,,
N/A,,Aduo,Xizang,China,841801,,38.0825896333504,90.8945747035949,Gas Hu,,,,
N/A,,Burkhala,Maga Buryatdan,Russia,678800,,72.0306477320327,149.121749294184,Ozero Mogotoyevo,,,,
N/A,,Davydovskaya,Vologda,Russia,164151,,60.5945278019355,39.0929866181514,,,,,
N/A,,Battleford,Saskatchewan,Canada,S9A 3L8,,56.1689103325744,-108.320779121007,Churchill Lake,,,,
N/A,,Suoyarvi,Karelia,Russia,186872,,62.195132743214,32.3862337557477,,,,,
N/A,,Harrington,Washington,Canada,X0E 1P0,,63.3430056569639,-118.259117226402,Lac la Martre,,,,
N/A,,Boomahnoomoonah,Victoria,Australia,3673,,-36.0109217145807,146.099599068923,Lake Mulwala,,,,
19284,Big Buck Rd,Shasta Lake,CA,United States,96051-9514,Shasta,40.818115466785,-122.368157115687,Shasta Lake,,,,
N/A,,Ladyzhenka,Aqmola,Kazakhstan,020408,,50.132826723676,68.6945258075958,Kerey Kli,,,,
N/A,,Wu’erxun Gaole,Nei Mongol,Mongolia,21013,,47.8230986001373,117.710671100062,Buyr Nuur,,,,
N/A,,Nomokhonovo,Buryat,Russia,671185,,51.1978361356384,106.422125753668,Ozero Gusinoye,,,,
N/A,,Laoyemiao,Jiangxi,China,330122,,29.2634403844856,116.059911173875,Poyang Hu,,,,
N/A,,Bwerankoli,Iburengerazuba,Rwanda,,,-2.03055715294578,29.2384593025821,Lake Kivu,,,,
123,Donhaven,Brodnax,NC,United States,27850-7923,Warren,36.5418877919432,-78.0330655361062,Lake Gaston,,,,
N/A,,Shchanovo,Vologda,Russia,161231,,60.2024347845961,37.6250596461211,Lake Beloye,,,,
N/A,,Västerbotorp,Kronoberg,Sweden,376 37,,56.6506372266254,14.7550895572863,Åsnen,,,,
N/A,,Mata Amarilla,Santa Cruz,Argentina,U9210XAF,,-48.8995078389773,-71.2136474919742,Lago Cardiel,,,,
N/A,,Branchport,New York,Canada,P9N 0J2,,42.5427948876494,-77.1444743783707,Keuka Lake,,,,
N/A,,Paavola,Lapland,Finland,93277,,66.613979837651,27.497521963014,Kemijarvi,,,,
N/A,,Brekkebygd,Sør-Trøndelag,Norway,7370,,62.1699646103442,11.8647117670232,Femunden,,,,
0,,Athens,AL,United States,35611-6896,Limestone,34.7084408261036,-87.112890815295,Wheeler Lake,,,,
N/A,,Långviken,Norrbotten,Sweden,762 94,,65.749873942456,18.2206023707993,Storavan,,,,
N/A,,Roopena,South Australia,Australia,5601,,-29.3056012626484,137.39920245942,Lake Eyre South,,,,
N/A,,Deccio,Piemonte,Italy,21014,,45.9500596591985,8.63198396701876,Lago di Como,,,,
N/A,,Butakova,Irkutsk,Russia,665660,,54.7366816720153,103.109171348756,Bratsk Reservoir,,,,
N/A,,Batkulovo,Chelyabinsk,Russia,456896,,55.5500097552801,60.4573655612551,,,,,
N/A,,Chinaun,Chukot,Russia,678835,,70.0603950381086,158.72079884383,Ozero Bolshoye Morskoye,,,,
N/A,,Nanahwat,Jammu and Kashmir,India,193401,,34.3603552457704,74.5439905759603,,,,,
N/A,,Malinovka,Tuva,Mongolia,85015,,49.1455294412764,93.3736065603961,Khyargas Nuur,,,,
N/A,,Mantilhue,Los Rios,Chile,5250000,,-40.82156746223,-72.4919387172889,Lago Rupanco,,,,
985,Inchelium Hwy,Hunters,WA,United States,99141-8688,Ferry,48.4617215739495,-118.208781784351,Franklin D. Roosevelt Lake,,,,
N/A,,Odon,Irkutsk,Mongolia,67071,,51.0301957652369,100.488785487078,Khövsgöl Nuur,,,,
N/A,,Eyong,Xizang,China,852500,,34.6023225582727,87.2745867661455,,,,,
N/A,,Gryaznyy,Maga Buryatdan,Russia,678803,,69.2664949872345,146.659093881489,Ozero Ozhogino,,,,
0,,Moneta,VA,United States,24121-6029,Bedford,37.1186942990578,-79.6267731781959,Smith Mountain Lake,,,,
N/A,,Millers Mobile Home Park,Washington,Canada,V0G 1R0,,50.4327837692231,-117.921063685053,Upper Arrow Lake,,,,
N/A,,Ledma,Karelia,Russia,187128,,64.4805758262643,31.8947368993554,,,,,
N/A,,Nurrholm,Norrbotten,Sweden,895 97,,66.0298142273582,17.7750189152429,Uddjaure,,,,
N/A,,Ekenäs,Varmland,Sweden,458 93,,59.1954151056787,12.0383325727461,Foxen,,,,
N/A,,Varpakyulya,Karelia,Russia,187413,,62.2774075167473,32.1411667889867,,,,,
N/A,,Milton,Scotland,United Kingdom,IV63 6XH,,57.2532005948639,-4.50950137739693,Loch Ness,,,,
N/A,,Ootischenia,British Columbia,Canada,T7V 0A7,,51.7650758086211,-117.63211973347,Kinbasket Lake,,,,
N/A,,Sokhnovka,Krasnoyarsk,Russia,663176,,69.2904856635957,90.178849426308,Ozero Glubokoye,,,,
N/A,,Piovere,Lombardia,Italy,37016,,45.6938156865304,10.7084775038501,Lago di Garda,,,,
N/A,,Kigoma,Kivu,Congo D.R.,,,-0.382706769262683,29.5933995152358,Lake Edward,,,,
N/A,,Ulan Xili,Nei Mongol,China,017307,,40.9192295444547,108.832531551548,Ulansuhai Nur,,,,
N/A,,Podkitsa,Murmansk,Russia,174590,,67.7068066596273,34.3990279533248,Umbozero Lake,,,,
1301,Porter Covert Rd,Junius,NY,United States,14860-9661,Yates,42.6340477670603,-76.8936826888956,Seneca Lake,,,,
N/A,,Banqiaocun,Anhui,China,246523,,30.0436525034481,116.319407315094,Daguan Hu,,,,
N/A,,Departamento de Confluencia,Neuquen,Argentina,M5605XAB,,-38.5527559523627,-68.8352220602759,,,,,
N/A,,Guijie,Xizang,China,859100,,31.5477060110273,83.0337954469874,Ngangla Ringeo,,,,
N/A,,Yangwu Taizi,Hunan,China,414216,,29.1770445131724,112.479894997844,,,,,
N/A,,Cametá,Para,Brazil,68400-000,,-4.603152442013,-49.4878864951845,Represa de Tucuruí,,,,
N/A,,Luanhaizi,Qinghai,China,816004,,35.7653552245699,92.8781254870446,Hoh Sai Hu,,,,
N/A,,Konyrtybek,Aqmola,Kazakhstan,021222,,50.9274626848679,69.1906397851374,Qozhakl,,,,
0,Industrial Park Dr,Eufaula,AL,United States,36027-3335,Quitman,31.8519313364179,-85.142925229932,Walter F. George Reservoir,,,,
N/A,,Qiongkanerzi,Xinjiang Uygur,China,841801,,37.5543532072126,89.3516023024013,Ayakkum Hu,,,,
N/A,,Irkana,Buryat,Russia,674073,,55.8446682465389,111.23795832905,,,,,
N/A,,Raidanlahti,Western Finland,Finland,40350,,62.0926940269722,25.7360588615909,Pijnne,,,,
N/A,,Vietzen,Mecklenburg-Vorpommern,Germany,17139,,53.4183719286561,12.7076329430205,Mritz,,,,
N/A,,Dixie Corner,Maine,Canada,G0L 2X0,,50.2218718721333,-69.3159896291844,Réservoir Outardes Quatre,,,,
N/A,,Verkhniy Vyalozërskiy,Murmansk,Russia,186312,,67.9040306248056,35.2198488690202,,,,,
N/A,,Pedra do Indaiá,Minas Gerais,Brazil,35629-000,,-18.6223911787223,-45.2230055689074,Represa Tres Marias,,,,
N/A,,Varpakyulya,Karelia,Russia,187133,,62.2749054216666,32.1466482695541,,,,,
N/A,,"Klubben,yt",Finnmark,Russia,184404,,69.2766505496205,29.2637927222996,,,,,
N/A,,Rudikovka,Krasnoyarsk,Russia,662693,,68.1100855137977,92.5586592488336,Ozero Dyupkun,,,,
1959,Lake Rd,Interlaken,NY,United States,13026-9761,Seneca,42.7145563558308,-76.7149803172694,Cayuga Lake,,,,
N/A,,Palmer,Saskatchewan,Canada,S0H 3J0,,57.4695582283057,-106.356714683203,Cree Lake,,,,
N/A,,Karakol’,Aqtobe,Russia,457246,,50.7618828633564,60.8881513218307,,,,,
N/A,,Bellbridge,Victoria,Australia,3691,,-36.1007027733559,147.064946901442,Lake Hume,,,,
N/A,,Bol’shoy Porog,Krasnoyarsk,Russia,655266,,71.919010136818,88.6973324286127,Ozero Purinskoye,,,,
N/A,,Kharpichan,Khabarovsk,Russia,682734,,51.4842524313375,136.521169935641,,,,,
N/A,,Kampinda,Northern,Zambia,,,-8.68936807279127,29.7681783168854,Lake Cheshi,,,,
N/A,,Vura,Central,Russia,686442,,69.4464986509755,160.208494033522,Ozero Chukochye,,,,
N/A,,Carberry,Manitoba,Canada,R0K 0H0,,62.998893992347,-99.3633819098529,,,,,
N/A,,Beltesiin Dugang,Hovsgol,Mongolia,67175,,51.391527731291,99.3594815163533,Dood-Tsagaan Nuur,,,,
N/A,,Imeni Mariny Raskovoy,Maga Buryatdan,Russia,678800,,71.0004468781036,146.495088744193,Ozero Sagarychye,,,,
N/A,,Hackåsen,Jamtland,Sweden,835 91,,63.0555590868198,14.4050667728909,Storsjön,,,,
N/A,,Dadī,Somali,Ethiopia,,,11.6650282259823,42.419241054553,Lake Assal,,,,
0,Riviere Dr,Wattsville,AL,United States,35128-6722,Talladega,33.5159717470932,-86.2727826210597,Logan Martin Lake,,,,
N/A,,Jinchuancun,Anhui,China,246512,,29.9752128438899,116.175495153907,Long Hu,,,,
N/A,,Bad Kleinen,Mecklenburg-Vorpommern,Germany,23996,,53.6971347570498,11.4754951439778,Schweriner See,,,,
N/A,,Dunleath,Saskatchewan,Canada,R0B 2E0,,60.2872116532101,-102.211299120928,Kasba Lake,,,,
N/A,,Duchess,Queensland,Australia,4482,,-25.0860386822795,139.859799181452,,,,,
N/A,,Rubinéia,Sao Paulo,Brazil,15790-000,,-20.1020124637497,-51.0027237220798,Repressa de Jupia,,,,
N/A,,Thanpāl,Azad Kashmir,Pakistan,49501,,33.2241097150422,73.6940827949491,,,,,
N/A,,Luanza,Katanga,Zambia,,,-9.00301305025006,28.7130688672937,Lac Moeru,,,,
N/A,,Dazhelega,Xizang,China,858500,,31.0706889430105,86.5750817525851,Tangra Yumco,,,,
N/A,,Bol’shoye Zapol’ye,Perm',Russia,614530,,58.8030277242122,56.2757029008713,Kama Reservoir,,,,
N/A,,Meijiaguai,Hunan,China,415901,,28.92021181225,112.166820058762,Dongting Hu,,,,
N/A,,Wanjiazui,Hubei,China,463215,,30.2488243000588,114.186403321877,,,,,
N/A,,Sredniy Sharanay,Zabaykal'ye,Mongolia,21031,,49.509069138284,115.82283664097,,,,,
N/A,,Kramvik,Finnmark,Russia,187037,,68.3962074453697,30.8677797370216,Paduskoye More,,,,
N/A,,Karasor,Aqtobe,Kazakhstan,110812,,50.9738250348912,61.5708084828842,Yke Lake,,,,
N/A,,Knockarevan,Northern Ireland,United Kingdom,BT92 9ED,,54.2175705338186,-7.50833583497967,Upper Lough Erne,,,,
N/A,,Bogodikta,Buryat,Russia,674070,,55.3095142634135,111.768647332494,,,,,
N/A,,Concepcionista,Santa Cruz,Bolivia,,,-17.4889421072018,-61.4143011960268,Lago Concepción,,,,
N/A,,Varpakyulya,Karelia,Russia,172617,,62.273433601031,32.1516314337063,,,,,
N/A,,Abuzer’ye,Vitsyebsk,Belarus,211161,,54.6651511891223,29.0831013245688,,,,,
N/A,,Ittendorf,Baden-Württemberg,Germany,88512,,47.6551638656087,9.33551637939705,Bodensee,,,,
N/A,,Youdunzi,Qinghai,China,816004,,35.5790227320955,91.9167650733159,Huiten Nur,,,,
N/A,,Roskoshnoye,Khabarovsk,Russia,682456,,53.4478083413693,139.725472497281,,,,,
N/A,,Áhkávuonnjárgga,Nordland,Sweden,917 93,,67.4498267766414,16.4898922277475,Virihaure,,,,
N/A,,Okunëvo,Buryat,Russia,671550,,54.8545745049315,112.433069011564,Ozero Kipylyushi,,,,
N/A,,Sindan,Khabarovsk,Russia,682711,,51.9957101022288,136.641583641895,,,,,
N/A,,Bharjyatali,Chittagong,Bangladesh,4570,,22.7550495336044,92.2990802908955,Karnaphuli Reservoir,,,,
N/A,,Quziricun,Xizang,China,850700,,32.0852149071698,90.8488410263244,,,,,
N/A,,Novonikol’skoye,Orenburg,Russia,462803,,51.944785108235,58.7874136984336,,,,,
0,,La Place,LA,United States,70462-6918,Saint John the Baptist,30.2657502373689,-90.5009270679173,,,,,
N/A,,Sibirtsevo Tret’ye,Primor'ye,Russia,692666,,44.9368583336113,132.432512845551,Lake Khanka,,,,
N/A,,Pogodayevo,Krasnoyarsk,Russia,663157,,73.8741030781947,92.0530523148972,Ozero Ayaturku,,,,
N/A,,Pei-shih-men-tzu,Nei Mongol,Mongolia,21031,,49.3895573026685,116.118538018156,,,,,
N/A,,Wapil,Western,Papua New Guinea,335,,-6.98912087447874,141.526468376353,Lake Murray,,,,
N/A,,Bagarnaya Vtoraya,South Kazakhstan,Kazakhstan,160709,,41.1348512675787,68.1572594772331,Shardara Bgeni,,,,
N/A,,Basi Block,Madhya Pradesh,India,456335,,24.4290983246022,75.4932597124209,Gandhi Sagar Dam,,,,
N/A,,Baumanskoye,Aqmola,Kazakhstan,150905,,50.4492681603425,68.9186846502945,Tengiz Köli,,,,
N/A,,Qulbabas,East Kazakhstan,China,833303,,44.8644447583369,82.9431484100243,Ebinur Hu,,,,
N/A,,Shipovo,Pskov,Russia,182722,,57.1927087667384,30.3373181361302,,,,,
N/A,,Tenteksay,Qostanay,Kazakhstan,111314,,50.3304922350449,64.1651174258206,Saryqopa Kli,,,,
N/A,,Ḩalāwah,Ar Raqqah,Syria,,,36.0570700745574,38.0873882178331,Buhayrat al-Assad,,,,
N/A,,Zhangyoufang,Jiangsu,China,276124,,34.0742333141985,118.197844301782,Luoma Hu,,,,
N/A,,Andranomena,Toamasina,Madagascar,504,,-17.4776090883073,48.5215785468452,Lac Alaotra,,,,
N/A,,Mattila,Lapland,Finland,99550,,68.0765280033047,26.6963924400366,Porttipahta Reservoir,,,,
N/A,,Raftsjöhöjden,Jamtland,Sweden,793 32,,65.234589537912,15.005737956254,,,,,
N/A,,Morrison,Quebec,Canada,J8E 1V6,,56.1372661889078,-74.5050483817314,Lac-à-l'Eau-Claire,,,,
N/A,,A. Sleptsova,Sakha,Russia,678800,,71.0446014971733,147.138511499034,Ozero Bakul,,,,
N/A,,Kewurong,Hubei,China,430413,,30.2190935232185,114.595457232754,Liangzi Hu,,,,
N/A,,Dingjia,Anhui,China,211314,,31.4789719873421,118.871084186124,Shijiu Hu,,,,
N/A,,Vaou,Sassandra-Marahoue,Cote d'Ivoire,,,6.63920230139972,-6.98408741402142,Lac de Buyo,,,,
N/A,,Kallioniyemi,Karelia,Russia,174260,,62.2091150392527,32.2173471142804,,,,,
0,,Oreana,NV,United States,89419-6430,Pershing,40.6142683087463,-118.323388992919,Rye Patch Reservoir,,,,
N/A,,Mikhaylovskiy,Buryat,Russia,671521,,55.3554350672461,113.552658846988,Ozero Busani,,,,
N/A,,Panovka,Altay,Russia,658847,,52.981094017802,79.595106352196,Ozero Kulundinskoye,,,,
N/A,,Muntu,Lira,Uganda,,,1.49460045151955,32.8906484096303,Lake Kyoga,,,,
N/A,,Nizhniye Tarmany,Tyumen',Russia,625519,,59.7174698851467,65.4281070645261,Ozero Leushinskiy Tuman,,,,
N/A,,Holmli,Nord-Trøndelag,Norway,7533,,64.1479443626055,11.8439152134927,Snåsavatnet,,,,
N/A,,Chaguaramas,Monagas,Venezuela,8052,,7.2966645793483,-62.7772465912427,Embalse de Guri,,,,
N/A,,Mahurangi West,Auckland,Russia,689516,,64.5700625209123,174.69372225737,Ozero Krasnoye,,,,
N/A,,Stornäs,Vasterbotten,Sweden,831 91,,65.0295649233648,15.1571752431304,,,,,
N/A,,Lamabucun,Xizang,China,852500,,35.7696235044133,90.196419143733,,,,,
N/A,,Yuzhu’ema,Xizang,China,853100,,31.5070837614832,88.7313171957466,,,,,
N/A,,Johkamohkki,Troms,Sweden,982 60,,67.7993841776103,19.7506866781939,,,,,
N/A,,Ovsishche,Pskov,Russia,175044,,57.1963883183275,30.3852354332442,,,,,
N/A,,Marta,Lazio,Italy,01010,,42.5966635229146,11.9265964420535,Lago di Bracciano,,,,
N/A,,Lyanino,Novosibirsk,Russia,632962,,54.5507907257316,78.5063541154522,,,,,
N/A,,Gribnoye,Leningrad,Russia,188903,,60.5592041066797,29.3298445600797,,,,,
N/A,,Xiaodongtun,Nei Mongol,Mongolia,21013,,47.4639743650367,117.257734549259,,,,,
N/A,,Blairmont,Mahaica-Berbice,Guyana,,,3.95636764672169,-57.5409678999172,Kabalebo Dam,,,,
N/A,,Towan,Victoria,Australia,3597,,-33.5244279326995,143.240605256989,,,,,
N/A,,Kvarnåsen,Vasterbotten,Sweden,982 99,,66.7876546726587,19.0504546513895,Randijaure,,,,
N/A,,Kurtdere,Elazığ,Turkey,23350,,38.8360146167439,39.2856644403151,Keban Baraji,,,,
N/A,,Annenskiy,Qostanay,Kazakhstan,110106,,52.719404308782,64.8389963104131,Qusmuryn Köli,,,,
N/A,,Agua Blanca,Carabobo,Venezuela,2018,,10.192177315879,-67.7355595057958,Lago de Valencia,,,,
N/A,,Koppelo,Lapland,Finland,93350,,67.9717343740459,27.6401414070358,Lokan Tekojarvi,,,,
N/A,,Syksyktakh,Sakha,Russia,678185,,62.7009974956897,111.309581219729,Vilyuy Reservoir,,,,
N/A,,Novogeorgiyevsk,Khabarovsk,Russia,682424,,51.7740539144986,140.34814862919,,,,,
N/A,,Karasu,Qostanay,Kazakhstan,110401,,50.1064811342977,64.0879371376633,,,,,
N/A,,Övre Malgonäs,Vasterbotten,Sweden,813 33,,64.7119460301897,16.3131733306354,,,,,
N/A,,Hotagen,Jamtland,Sweden,682 40,,63.9925201034799,14.2430235668483,,,,,
N/A,,Poblado La Morcona,Tacuarembó,Uruguay,90800,,-32.7010914691122,-56.0567092356901,Lago Rincon del Bonete,,,,
N/A,,Gongota,Zabaykal'ye,Russia,671550,,54.8357352007951,112.263601781743,Ozero Kipylyushi,,,,
N/A,,Qaryah Kūrak,Al Qadarif,Sudan,,,14.7872013404043,35.93713203131,Khashm el Girba Dam,,,,
N/A,,Kapenta,Rukwa,Tanzania,,,-7.84910567189391,32.0730145286902,Lake Rukwa,,,,
N/A,,Itapitocaí,Rio Grande do Sul,Argentina,B2752XAB,,-28.4350193566565,-57.1369558801036,Laguna Iber,,,,
N/A,,Donggangxindun,Hubei,China,433205,,29.8487834512869,113.284708323414,Hong Hu,,,,
N/A,,Shucaicun,Anhui,China,233433,,32.369570653979,116.907266795231,,,,,
N/A,,Ban Thung Cha,Tak,Thailand,63110,,17.2943006111848,98.9211059184275,Bhumphol K. K. Nam,,,,
N/A,,Los Hules Abajo,Panama Oeste,Panama,,,9.16572960457084,-79.8744868155992,Lago Gatun,,,,
N/A,,Itiken,Sakha,Russia,678750,,71.7151629787793,143.20271593722,Ozero Soluntakh,,,,
N/A,,Psarádes,Epirus and Western Macedonia,Greece,472 00,,40.8435779637819,21.0302677056478,,,,,
N/A,,Sanba Ercun,Xizang,China,856900,,31.7489038919218,88.9445894086267,Siling Co,,,,
N/A,,Peski,Tver',Russia,175132,,57.2208205408794,33.0779198540818,,,,,
N/A,,Capacho,Mendoza,Argentina,Q8401XAF,,-39.4644016540895,-69.0238575378366,Embalse Ezequiel Ramos Mexia,,,,
N/A,,Xago,Xizang,China,853100,,31.150167257336,88.3585581915502,Gyaring Co,,,,
N/A,,Barsuch’ye,Sverdlovsk,Russia,623884,,60.566563209858,63.9252321239996,Ozero Tursuntskiy Tuman,,,,
N/A,,Remeicun,Xizang,China,816004,,35.2207815893763,92.1328151158508,Elsen Nur,,,,
N/A,,Bambakhta,Buryat,Russia,674054,,55.2226768459097,113.040030808927,Ozero Baunt,,,,
N/A,,Guadalupe,Oaxaca,Mexico,68450,,18.2559882145239,-96.5177247841384,Presa Miguel Aleman,,,,
N/A,,General Uriburu,Misiones,Argentina,W3231XAD,,-28.2283757394101,-56.9748465824761,Laguna Iber,,,,
N/A,,Todos Santos,Sonora,Mexico,85656,,29.136863809819,-109.602526614634,Lake Novillo,,,,
N/A,,Gråtanliden,Vasterbotten,Sweden,811 40,,65.2425373693446,16.7606140966804,Storuman,,,,
N/A,,Tennevollen,Troms,Sweden,872 31,,67.6126101389452,17.7971964049189,Akkajaure,,,,
N/A,,Bubacun,Xizang,China,852500,,35.2154830350879,90.3220659361712,,,,,
N/A,,Vasil’yevka,Novosibirsk,Russia,632782,,53.3204958563848,77.99811165657,Ozero Bol'shoye Topol'noye,,,,
N/A,,Bessarabka,Omsk,Kazakhstan,080505,,53.2329225285632,73.2831002005264,Siletitengiz Kli,,,,
0,,Cibola,NV,United States,89046-1250,Mohave,35.4901247657018,-114.663396629693,Lake Mohave,,,,
N/A,,Progreso,El Beni,Bolivia,,,-13.0153432851183,-65.9695016622089,Laguna Huaitunas,,,,
N/A,,Austervefsn,Nordland,Norway,8672,,64.821007939292,13.5498441045262,,,,,
N/A,,Psarádes,Epirus and Western Macedonia,Greece,472 00,,40.8397512301292,21.0309962568625,,,,,
N/A,,Tendik,North Kazakhstan,Kazakhstan,160810,,54.1029157063008,69.8685616473039,Shaghalalytengiz Kli,,,,
N/A,,Vilga,Karelia,Russia,171123,,61.9291747543505,34.0889151039115,,,,,
N/A,,Altamash,Kemerovo,Russia,652982,,51.5731503977312,87.6810038756641,Ozero Teletskoye,,,,
N/A,,Ōnohama,Shiga,Japan,5230802,,35.2462440863732,136.094529686836,Biwa Ko,,,,
N/A,,Onslow Corners,Quebec,Canada,K1C 6E7,,52.508198047565,-76.2965897893676,Lac Low,,,,
N/A,,Anash,Krasnoyarsk,Russia,655136,,54.6115769179843,91.0344946117048,Krasnoyarsk Reservoir,,,,
N/A,,Rosochaty Róg,Podlachian,Poland,16-304,,54.0436013346838,23.0916432681599,,,,,
N/A,,Portage la Prairie,Manitoba,Canada,R1N 3A1,,57.1565019791012,-98.2849696359716,Southern Indian Lake,,,,
N/A,,Baoge Taolegai,Nei Mongol,Mongolia,21013,,47.3256232252848,117.572471293478,,,,,
N/A,,Ban Huai Oi,Uttaradit,Thailand,53190,,17.9161448297504,100.459375596073,Siri Kit Dam,,,,
N/A,,Nikolayevka,Krasnoyarsk,Mongolia,84095,,48.0647715485124,92.3492946259029,Har Us Nuur,,,,
N/A,,Yablonovka,Saratov,Russia,412618,,51.0399097814322,46.0125818278909,Volgograd Reservoir,,,,
N/A,,Ituna,Saskatchewan,Canada,S0E 1B0,,53.5695279079382,-103.491792773045,Tobin Lake,,,,
N/A,,Arvidsjaur,Norrbotten,Sweden,935 92,,67.2256684938306,19.1632952939791,Stora Lulevatten,,,,
N/A,,Xulaozhuang,Anhui,China,236743,,32.2800839593309,116.352612910163,,,,,
N/A,,Vaibla,Viljandi,Estonia,68715,,58.2597787275907,26.0568377706259,Võrtsjärv,,,,
N/A,,Cole Ford,North Dakota,Canada,R0L 0A5,,53.3363915192499,-100.458946293738,Cedar Lake,,,,
N/A,,Charles Darwin,Northern Territory,Australia,0820,,-24.7484030284595,130.870831397729,Lake Amadeus,,,,
N/A,,Chel’tsy,Khabarovsk,Russia,682651,,50.0290633688621,136.821165534523,,,,,
N/A,,Samshur,Khanty-Mansiy,Russia,623993,,60.6589935457773,64.962661898589,Ozero Syrkovoye,,,,
N/A,,Getamune,Polonnaruwa,Sri Lanka,,,7.92395453426589,81.1046348144445,,,,,
N/A,,Podtikhov,Volgograd,Russia,404552,,48.5214774917572,43.4528463264393,Tsimlyansk Reservoir,,,,
N/A,,Psarádes,Epirus and Western Macedonia,Greece,472 00,,40.839456866002,21.0357551435845,,,,,
N/A,,Bela Vista,Sao Paulo,Brazil,15545-000,,-19.9567437670102,-49.873147074797,Represa Agua Vermetha,,,,
N/A,,San Salvador,El Beni,Bolivia,,,-12.9026018244269,-65.5415204334849,Laguna Ragaguado,,,,
N/A,,Woodlands,Manitoba,Canada,R0C 3K0,,55.0887411680648,-97.653544132519,Sipiwesk Lac,,,,
N/A,,Chalaaty,Tuva,Mongolia,84035,,47.8988973628737,93.2704132202809,Har Nuur,,,,
N/A,,Ivanovka,Altay,Russia,658997,,52.7014480970269,79.7864928448139,Ozero Kuchukskoye,,,,
N/A,,Nepco Camp Number 7,Michigan,Canada,P0T 1A0,,50.7766010697129,-88.1501758596797,Ogoki Reservoir,,,,
N/A,,Ulus Bugusan,Buryat,Russia,673240,,52.9242817412656,111.958734299236,Ozero Isinginskoye,,,,
N/A,,Ribu,Xizang,China,858200,,31.0184393104446,87.1390641463278,Ngangz Co,,,,
N/A,,Turtle River,Minnesota,Canada,P0X 1P0,,50.3353492431426,-94.7602774468994,Umfreville Lake,,,,
N/A,,Lagoa,Minas Gerais,Brazil,37546-000,,-21.0302897386594,-45.8786485811545,Represa Furnas,,,,
N/A,,Ipirpantai,Nusa Tenggara Timur,Australia,6440,,-29.121329319064,122.33033160268,Lake Carey,,,,
N/A,,Abaine,Vidzeme,Latvia,LV-4628,,56.762642776999,26.8611782407358,,,,,
N/A,,Qierenchuji,Xizang,China,852500,,34.7963085180524,90.3400840035015,,,,,
N/A,,Iturama,Minas Gerais,Brazil,38280-000,,-18.6637493385843,-50.1981653002251,Represa de São Simão,,,,
0,Pyramid Hwy,Patrick,NV,United States,89510-8916,Washoe,40.0560067416411,-119.582002816828,Pyramid Lake,,,,
N/A,,Västra Tåsjö,Jamtland,Sweden,912 97,,64.1192438602101,15.8632881052203,,,,,
N/A,,Kul’chukay,Qostanay,Kazakhstan,111316,,54.1342654858403,64.5472026128915,,,,,
N/A,,Stortangen,Nord-Trøndelag,Norway,8370,,64.9998341465245,13.6079792674673,,,,,
N/A,,Armantsy,Sakha,Russia,678781,,68.4556689990503,151.798371361103,,,,,
N/A,,Zhoushan,Jiangsu,China,213233,,31.5953929996227,119.531576895908,,,,,
N/A,,Psarádes,Epirus and Western Macedonia,Macedonia,7310,,40.8883213111059,21.0349024494998,,,,,
N/A,,Bjørnstad,Oppland,Norway,2850,,60.7609907158285,10.819420827117,Mhisa,,,,
N/A,,Buena Esperanza,Neuquen,Argentina,U9203XAA,,-45.4161499405647,-69.1867427506359,Lago Musters,,,,
N/A,,Carlópolis,Parana,Brazil,86415-000,,-23.3648916309406,-49.7052689945486,Represa Itarare,,,,
N/A,,San Francisco de Cara,Aragua,Venezuela,2334,,9.82731298029927,-67.0135323130641,Camatague,,,,
N/A,,Yegarchikazakhlar,Ganja-Qazakh,Azerbaijan,AZ 2242,,40.9156971749292,46.6117969877873,Mingevir Reservoir,,,,
N/A,,Ngolé,Moyen-Ogooue,Cameroon,,,-0.960543550822152,10.0668655713308,Lac Onangu,,,,
N/A,,Bezlyudnyy,Novosibirsk,Russia,632545,,55.4768602696879,80.0393157593614,Ubinskoye Lake,,,,
N/A,,Tequeruma,Oruro,Bolivia,,,-18.6138546190355,-67.181413025738,Lago Poopó,,,,
N/A,,Padnavolok,Karelia,Russia,174442,,61.9895194004125,34.1187504089881,,,,,
N/A,,Shapsha,Khanty-Mansiy,Russia,627235,,60.506218563796,69.4502954307311,,,,,
N/A,,Sagres,Sao Paulo,Brazil,86215-000,,-22.8095737051068,-50.9494868753607,Represa Iepe,,,,
N/A,,Sabana Larga,Guarico,Venezuela,2126,,9.05445996451508,-67.3753456207478,Embalse de Gurico,,,,
N/A,,Jianmin,Heilongjiang,China,162117,,46.1689193877209,124.365675644908,,,,,
N/A,,Krasnoozërka,Khakass,Mongolia,85191,,50.1522547560667,91.0164991766642,Reg Nuur,,,,
0,,Fallon,OR,United States,97721-9577,Harney,43.3405216721763,-118.772937110383,Malheur Lake,,,,
N/A,,Podrezy,Minsk,Belarus,222385,,54.861197697792,26.78251627555,,,,,
N/A,,Minino,Yaroslavl',Russia,601261,,57.744052776856,40.4211528033971,Kostroma Reservoir,,,,
N/A,,Vasil’kovo,Ivanovo,Russia,157984,,57.1662159952965,43.0738975974963,Gorky Reservoir,,,,
N/A,,Imeni Vladimira Il’icha,Altay,Russia,658962,,52.6617089398642,79.7156142192166,Ozero Kuchukskoye,,,,
N/A,,Dolno Štrbovo,Resen,Greece,440 01,,40.7443772529385,21.097092532205,,,,,
N/A,,Strångsund,Jamtland,Sweden,770 13,,62.3610069288527,15.0973289127046,,,,,
N/A,,Namoninilu,Nusa Tenggara Timur,Australia,6646,,-26.2611402777891,122.997782907648,Lake Carnegie,,,,
N/A,,Wandin,Adamaoua,Cameroon,,,6.40812646160136,12.7882477105185,M'Bakaou Reservoir,,,,
N/A,,Ørjedalen,Nordland,Norway,8647,,65.7871110045382,14.0478398257476,Røssvatnet,,,,
N/A,,Huanlülaowu,Anhui,China,246281,,30.2834120849968,116.783789836252,Wuchang Hu,,,,
N/A,,Corumbazul,Goias,Brazil,72950-000,,-18.2743055983891,-48.8576286510302,Barragem Itumbiara,,,,
N/A,,Qizuicun,Anhui,China,231603,,31.581705067711,117.416739429658,Chao Hu,,,,
N/A,,Ajuexiong,Xizang,China,858500,,30.6429778662881,86.2627126990499,,,,,
N/A,,Yangyicun,Xizang,China,852500,,34.9097858890617,90.3898813929761,,,,,
N/A,,Dzhergalan,Buryat,Russia,671442,,52.858049812661,111.858467720236,Ozero Bolshaya Kharga,,,,
N/A,,Kokbiye,Qostanay,Kazakhstan,110102,,51.6417372393529,64.4399376154022,Zharman Kli,,,,
0,,Long Creek,OR,United States,97721-2608,Harney,43.2377885918073,-119.100076852601,Harney Lake,,,,
N/A,,Conceição da Barra de Minas,Minas Gerais,Brazil,35537-000,,-21.3963315307476,-44.4982967199911,,,,,
N/A,,Potters Creek,West Coast,New Zealand,9412,,-44.4509771349141,170.213612887188,Lake Benmore,,,,
N/A,,Padozero,Karelia,Russia,186210,,62.0326437450373,34.1664280669972,,,,,
N/A,,Sekele,Bandundu,Congo D.R.,,,-2.13490923601395,18.3545080491097,Lac Mai-Ndombe,,,,
N/A,,Yaogang,Jiangsu,China,213146,,31.5892113529529,119.80591377656,Ge Hu,,,,
N/A,,Kossapola,Ampara,Sri Lanka,91040,,7.18480621103826,81.5000799294504,Senanayake Samudra,,,,
N/A,,Bald Hills,South Australia,Australia,5654,,-31.301095680474,135.117170166658,Lake Everard,,,,
N/A,,Tokarevskaya,Arkhangel'sk,Russia,164131,,61.3348535816717,38.7475768956149,,,,,
N/A,,Wharua,Canterbury,New Zealand,9471,,-43.8911186740688,170.526193495205,Lake Tekapo,,,,
N/A,,Anhembi,Sao Paulo,Brazil,17380-000,,-22.6361932342262,-48.1218045538462,Tiete,,,,
N/A,,Fonds Cede,Ouest,Haiti,HT 6320,,18.5705162843641,-72.015632482572,Etang Saumâtre,,,,
N/A,,Zolotistyy,Maga Buryatdan,Russia,678782,,68.6022623343619,152.246632545271,,,,,
N/A,,Erriba,Tasmania,Australia,7310,,-42.8960986481905,146.098052815678,Lake Pedder,,,,
N/A,,Gåsböle,Jamtland,Sweden,830 86,,62.8521534749718,15.213134823413,,,,,
N/A,,Baltais Dukstgals,Latgale,Latvia,LV-4617,,56.3341957899589,27.4338665793137,,,,,
N/A,,Arbore,Oromia,Ethiopia,,,4.69360260312297,36.8747696268998,Chew Bahir,,,,
N/A,,Sacedón,Castilla-La Mancha,Spain,19491,,40.3949670340332,-2.70689810055691,Embalse de Buenda,,,,
N/A,,Rottenbyen,Troms,Norway,9360,,68.5002651643108,19.5304190110503,,,,,
N/A,,Pryamikovo,Yaroslavl',Russia,152771,,57.4089192181166,38.1111920740942,Uglich Reservoir,,,,
N/A,,Juenahai,Xizang,China,852500,,33.5108203748684,90.3506692880671,,,,,
N/A,,Kemel’,Qostanay,Kazakhstan,111408,,51.4231718749576,64.4567125103657,Iken Aqsuat Kli,,,,
N/A,,Yangulovskiye,Khanty-Mansiy,Russia,626142,,60.2152396241264,68.3879508641699,Ozero Enetor,,,,
N/A,,Ostrov,Karelia,Russia,186137,,61.9546372513474,33.193256645987,,,,,
N/A,,Nadong,Xizang,China,858500,,30.2825289926154,86.3902704101548,,,,,
N/A,,Shaolaowobu,Jilin,China,131412,,45.3632447717615,124.265625363724,,,,,
N/A,,Omskiy,Irkutsk,Russia,666655,,57.4548400219491,102.391346605533,Ust-Ilimsk Reservoir,,,,
N/A,,Itatinga,Sao Paulo,Brazil,15903-000,,-23.3431086855329,-48.6278091292824,Barra Bonita,,,,
N/A,,Malaya Sosnovka,Buryat,Russia,674074,,52.6121085844425,111.493128964852,Ozero Bolshoye Yeravnoye,,,,
N/A,,Tolva,Lapland,Finland,93680,,66.1855328506109,28.6912654860212,,,,,
N/A,,Luishia,Katanga,Congo D.R.,,,-10.9096095016819,27.0180807647266,Lake Rentenue,,,,
N/A,,Korrelocking,Western Australia,Australia,6475,,-29.8459066179986,117.461778886946,Lake Moore,,,,
N/A,,Donglük,Xinjiang Uygur,China,857300,,35.2996711754476,89.2554382764416,,,,,
N/A,,Khmel’nitskoye,Pavlodar,Kazakhstan,141112,,52.3173029111201,77.7772917984073,Ozero Maraldy,,,,
N/A,,Sinnberg,Jamtland,Sweden,831 34,,62.8337557170261,14.6334891903569,,,,,
N/A,,Baishicun,Anhui,China,246009,,30.3832015240944,117.103710193572,,,,,
N/A,,Östra Gottbol,Varmland,Sweden,548 91,,58.9956890454199,14.2964498003783,,,,,
N/A,,Burrandong,New South Wales,Australia,2820,,-32.7256708737277,149.175837711337,Burrendong Reservoir,,,,
N/A,,Khassinmyaki,Leningrad,Russia,197755,,61.0142910472253,30.0124955170172,,,,,
N/A,,Dzhamansha,Karakalpakstan,Kazakhstan,120105,,45.4728954091181,59.7237420954192,Aral Sea,,,,
N/A,,Mingjiatang,Hubei,China,435243,,30.1037027853829,115.035267727567,,,,,
N/A,,Nova Aliança,Sao Paulo,Brazil,15210-000,,-21.4488755274406,-49.505477652457,Bariri,,,,
N/A,,Cethana,Tasmania,Australia,7306,,-42.7135928893688,146.144861749569,Lake Gordon,,,,
N/A,,Valmiera District,Vidzeme,Latvia,LV-4241,,57.7489097849537,25.2454412362335,,,,,
N/A,,Faggi,"Southern Nations, Nationalities and Peoples",Ethiopia,,,5.83558823433026,37.6491920898882,Lake Chamo,,,,
N/A,,Karasuskiy Pyatyy,Qostanay,Kazakhstan,111705,,52.6363936249308,65.5943938268446,Koybaghar Kli,,,,
N/A,,Xiyilian,Tianjin,China,251812,,38.7269527076416,117.366404957097,Baidagang Shuiku,,,,
N/A,,Karacharovo,Tver',Russia,143516,,56.679926457275,36.6976762685682,Ivankovo Reservoir,,,,
N/A,,Canterbury,Canterbury,New Zealand,7572,,-43.2903236454901,171.49266028309,Lake Coleridge,,,,
N/A,,Ohau,Canterbury,New Zealand,9210,,-44.2268796748659,169.84697882084,Lake Ohau,,,,
N/A,,Karelino,Tyumen',Russia,628518,,60.6772441216595,69.0321233100848,Ozero Ergipskiy Sor,,,,
N/A,,Samjung,West,China,859300,,31.3825677357065,84.0183602006123,,,,,
N/A,,Dayucun,Xizang,China,852500,,33.3846853463925,89.8614451540457,,,,,
N/A,,Taragon,South Australia,Australia,5655,,-18.2635613077488,135.045293918387,,,,,
N/A,,Rya-Backgården,Vastra Gotaland,Sweden,545 93,,58.595942560775,14.21749599875,,,,,
N/A,,Paiken,Bougainville,Russia,686417,,68.5413289600456,155.240134397984,,,,,
N/A,,Mirim,Rio Grande do Sul,Brazil,98368-000,,-32.8796233122176,-53.2385414940465,Lagoa Mirim,,,,
N/A,,Säljan,Gavleborg,Sweden,811 52,,60.5809870520875,16.7551949002836,,,,,
N/A,,Bandeirantes,Sao Paulo,Brazil,15367-000,,-20.8479311619013,-50.8023007757523,,,,,
N/A,,Gagarin,Leninabad,Kyrgyzstan,720405,,40.3343280238441,70.1845805245947,Obanbori Qayroqum,,,,
N/A,,Content,Northern Cape,South Africa,S-8530,,-30.1064188705101,24.8575091364788,Vanderkloof Dam,,,,
N/A,,Hexi,Hebei,China,025350,,45.4961501751615,117.516007863009,Ulgain Gobi,,,,
N/A,,Qiongri’asang,Xizang,China,852500,,34.5675875912711,88.9975300808837,,,,,
N/A,,Gorodishche,Kiev,Ukraine,08413,,49.8977769681614,31.5059942244922,,,,,
N/A,,Anastas’yevskiy,Buryat,Russia,671440,,52.6511118312874,111.649553536115,,,,,
N/A,,Komarovka,North Kazakhstan,Kazakhstan,020409,,53.0209803570284,68.2826284849465,Imantau Kli,,,,
N/A,,Ryumino,Vologda,Russia,162689,,60.8913940241478,37.3890831882843,,,,,
N/A,,Juca Pedroso,Minas Gerais,Brazil,38185-000,,-20.4397952996332,-46.8259130041941,,,,,
N/A,,Halli,Afar,Ethiopia,,,11.1947815328894,41.7808201251368,Lake Abbe,,,,
N/A,,Kimstad,Östergotland,Sweden,612 91,,58.6492224677859,15.9630382796321,,,,,
N/A,,Kayyerkan,Krasnoyarsk,Russia,652291,,68.0740259082241,87.7631677416998,Khantayskoye Reservoir,,,,
N/A,,Yudman,Khabarovsk,Russia,694761,,72.5387938064937,141.851564019891,Ozero Bustakh,,,,
N/A,,Pamyat’ Kommunarov,Altay,Russia,658622,,52.4731687164363,81.3045428691479,Ozero Gorkoye,,,,
N/A,,Shangrao,Hubei,China,435101,,30.2554474929193,114.950258311293,,,,,
N/A,,Lelystad-Haven,Flevoland,Netherlands,8242 PZ,,52.6670074941525,5.42242735625463,IJsselmeer,,,,
N/A,,Ban Phu Khao Wong,Khon Kaen,Thailand,40270,,16.7079272699385,102.592401661802,Ubolratna Reservoir,,,,
N/A,,Chillarón del Rey,Castilla-La Mancha,Spain,19128,,40.6160344935091,-2.69612899205457,Embalse de Entrepeas,,,,
N/A,,Sharu,Xizang,China,859300,,31.1342715944709,84.1174469946614,,,,,
N/A,,Zimnyaya Kaur’ya,Khanty-Mansiy,Russia,627222,,61.6177375078452,67.2294575191734,Ozero Bolshoy Sor,,,,
N/A,,Maungapohatu,Bay of Plenty,New Zealand,3196,,-38.7620549502037,177.098641278093,Lake Waikaremoana,,,,
N/A,,Fazenda da Barra,Minas Gerais,Brazil,75714-000,,-18.3467191736635,-47.7096998352453,,,,,
N/A,,Bønsnes,Buskerud,Norway,3530,,60.0103621916427,10.1977739209399,Tyrifjorden,,,,
N/A,,Montagu,Eastern Cape,South Africa,B-5850,,-30.6242053701348,25.5884669501557,Gariep Dam,,,,
N/A,,Ohai,Southland,New Zealand,9635,,-45.0166978200471,167.952179615027,Lake Te Anau,,,,
N/A,,Shenglitun,Jilin,China,132415,,43.6365048020072,126.782212171222,Songhua Hu,,,,
N/A,,Kärra,Östergotland,Sweden,590 46,,57.9764532552264,15.8244527168354,,,,,
N/A,,Amb,N.W.F.P.,Pakistan,17201,,34.3265033711503,72.8547472177895,Tarbela Dam,,,,
N/A,,Ngulupi,Western Australia,Australia,0872,,-23.4748366324243,128.891936734671,,,,,
N/A,,Bougainville,Bougainville,Russia,678837,,68.7915384681075,154.999170710339,,,,,
N/A,,Koskol’,North Kazakhstan,Kazakhstan,151205,,53.894358722228,70.6427686429922,Qalybek Kli,,,,
N/A,,Gakangma,Xizang,China,836104,,36.341278639303,89.4302469794236,,,,,
N/A,,Medvezh’ye,Arkhangel'sk,Russia,161105,,62.0698808071194,38.2495992242442,,,,,
N/A,,Tsapka-Layda,Krasnoyarsk,Russia,663707,,66.8382853025253,94.9813821160651,Ozero Tembenchi,,,,
N/A,,Pshenychne,Crimea,Ukraine,96305,,45.7669651721226,34.8469431562232,Syvash,,,,
N/A,,Sosnovo-Ozerskoye,Buryat,Russia,671430,,52.5463182020285,111.532893431761,,,,,
N/A,,Nala,Xizang,China,858800,,30.8884775483159,83.5829801246757,,,,,
N/A,,Sandvik,Östergotland,Sweden,590 14,,58.0185473254063,15.1792305859433,,,,,
N/A,,Basodesh,Manyara,Tanzania,,,-3.57788218721339,35.1280330397579,Lake Eyasi,,,,
N/A,,Todal,Møre og Romsdal,Norway,6612,,61.863237189873,8.71303499291067,,,,,
N/A,,Tagaim,Khanty-Mansiy,Russia,625504,,62.2796152477007,65.7293930807534,Ozero Vandmtor,,,,
N/A,,Yangjiajing,Hubei,China,438207,,30.3150562286635,115.029244488345,,,,,
N/A,,Anandpur,Punjab,India,174304,,31.4078830506398,76.4937635226687,Gobind Sagar Reservoir,,,,
N/A,,Krugloozerka,Novosibirsk,Russia,632373,,55.1348091539609,78.0204799374875,Ozero Tandovo,,,,
N/A,,Jiekeng,Guangdong,China,516257,,23.9108702787869,114.508960087329,Xinfengjiang Shuiku,,,,
N/A,,Idappadi,Tamil Nadu,India,636402,,11.8940435168907,77.8330938686563,Stanley Reservoir,,,,
N/A,,Bezhevka,Omsk,Kazakhstan,080102,,54.0434541526202,71.3398908298546,Kishi Qaraoy Kli,,,,
N/A,,Lamniat,Malampa,New Zealand,9691,,-45.9543607836269,167.303170419652,Lake Hauroko,,,,
N/A,,Kangmucun,Xizang,China,853200,,31.245099688336,90.5829210148485,,,,,
N/A,,Ust’-Pocha,Arkhangel'sk,Russia,161272,,63.1092805400214,38.1543296561021,,,,,
N/A,,Fanqingtian,Jilin,China,131402,,45.7139796292389,123.881860157802,Yueliang Pao,,,,
N/A,,Pemberumbe,Tete,Mozambique,2310,,-15.688463923601,32.0633305793552,Lago de Cahora Bassa,,,,
N/A,,Muloho,Shefa,New Zealand,9872,,-45.0865032072793,168.571199362916,Lake Wakatipu,,,,
N/A,,Pit-Gorodok,Krasnoyarsk,Russia,663230,,66.7886849471037,93.8166979238478,Ozero Vivi,,,,
N/A,,Solem,Sør-Trøndelag,Norway,7505,,63.2530774161252,10.9249563063256,,,,,
N/A,,Keya,Naoasaki,Australia,0872,,-24.3242243212628,129.988667786781,Lake Neale,,,,
N/A,,Uukuniemi,Southern Finland,Finland,82590,,61.8988552492559,30.0075667458622,,,,,
N/A,,Megelyakh,Sakha,Russia,686414,,69.4790258870236,156.063455201408,Ozero Bolshoy Olr,,,,
N/A,,Sallen,West,China,858800,,31.2901373997871,83.4410255263059,,,,,
N/A,,Tong,Ysyk-Kol,Kyrgyzstan,722117,,42.4488927310944,77.0358205171577,Issyk-Kul,,,,
N/A,,Ingoda,Zabaykal'ye,Russia,672522,,52.3280472017604,113.105047386821,,,,,
N/A,,Xialiubin,Hubei,China,430417,,30.2388159197364,114.650973661342,,,,,
N/A,,Shompole,Kajiado,Tanzania,,,-2.34817604612084,36.0370483722024,Lake Natron,,,,
N/A,,Vehkasaari,Eastern Finland,Finland,73970,,63.2405669407221,28.103984625295,,,,,
N/A,,Departamento de Canindeyú,Canindeyú,Paraguay,6630,,-25.2039315151958,-55.2505923330014,,,,,
N/A,,Oktyabr’skoye,Khanty-Mansiy,Russia,627035,,63.8184037222816,66.0274773021771,Ozero Bolshoy Kazymskiy Sor,,,,
N/A,,Pechākata,Odisha,India,762110,,21.6332278451056,83.7960385092148,Hinakud Dam,,,,
N/A,,Vahtermetsä,Western Finland,Finland,05820,,61.4359676593414,24.8938405834341,,,,,
N/A,,Platovo,Omsk,Russia,646724,,54.668977922775,71.7240255840954,Ebeyty Lake,,,,
N/A,,Ga’aluma,Xizang,China,856900,,31.8141055460815,88.2412396567767,,,,,
N/A,,Huneté,Îles Loyaute,New Zealand,9691,,-46.0575104182296,167.101776237266,Lake Poteriteri,,,,
N/A,,Pūnahalli,Karnataka,India,571103,,12.4718802984502,76.4706358859139,Krishna Raja Sagar,,,,
N/A,,Akhoshali,Blue Nile,Sudan,,,11.5469882110025,34.4685126055342,Roseires Reservoir,,,,
N/A,,Yli-Livo,Oulu,Finland,93225,,66.084124408814,27.1844658023317,,,,,
N/A,,Yaozui,Hubei,China,430311,,30.429122327927,114.359436098291,,,,,
N/A,,Darbaza,Jizzakh,Uzbekistan,131215,,40.7794065840672,67.4337750326426,Aydar Ko‘l,,,,
N/A,,Lappajärvi,Western Finland,Finland,63160,,63.1447514173407,23.6395011748436,,,,,
N/A,,Bereg Taskino,Krasnoyarsk,Russia,663230,,67.044193009454,93.5207408388622,,,,,
N/A,,Kalasa,Telangana,India,508266,,16.430783444244,79.2133982319583,Nagarjuna Sagar Dam,,,,
N/A,,Tibet Autonomous Region,Xizang,China,856900,,31.7026887239622,87.9975585793354,,,,,
N/A,,Novo-Zalesnovo,Perm',Russia,617705,,57.3210515261678,55.2830838881252,Votkinsk Reservoir,,,,
N/A,,Bume,"Southern Nations, Nationalities and Peoples",Kenya,,,3.53056993682573,36.0751025447711,Lake Turkana,,,,
N/A,,Ingisoim,Khanty-Mansiy,Russia,641354,,66.0040573662342,65.1343846684111,Ozero Shuryshkarskiy Sor,,,,
N/A,,Tangru,Xizang,China,859300,,30.2729621584836,84.7661796157858,,,,,
N/A,,Domno-Klyuchi,Zabaykal'ye,Russia,672516,,52.2697631045883,112.99812983546,,,,,
N/A,,Haukkavuori,Western Finland,Finland,32860,,60.9817638111772,22.2753255492289,Pyhjrvi,,,,
N/A,,Loisi,Nusa Tenggara Timur,Australia,6440,,-26.9171307351021,123.383733643217,Lake Wells,,,,
N/A,,Yari,Xizang,China,851100,,28.5703600471541,90.3927514432156,Puma Yumco,,,,
N/A,,Shipunovo,Omsk,Russia,646009,,56.0542555050566,71.5513983222038,Ozero Ik,,,,
N/A,,Kieta,Bougainville,Russia,678837,,69.4447324662127,155.633534288984,Ozero Krugovatoye,,,,
N/A,,Franz Josef,West Coast,New Zealand,9596,,-44.043960737747,170.173031652163,Lake Pukaki,,,,
N/A,,Kudadeniya,Kandy,Sri Lanka,,,7.25736696837623,80.7701500275512,,,,,
N/A,,Lénor,Malampa,New Zealand,9682,,-45.857278774589,167.470849301709,Lake Monowai,,,,
N/A,,‘Izbat al Tirbāni,Al Isma`iliyah,Egypt,,,30.3063724869131,32.3934066348834,Great Bitter Lake,,,,
N/A,,Zhoujiawan,Hubei,China,430212,,30.5005056287564,114.311014229172,,,,,
N/A,,Wolitta,Kaliningrad,Russia,238545,,54.5995079887719,20.0237332717316,Kaliningradskiy Zaliv,,,,
N/A,,Kleven,Southern Finland,Finland,10360,,60.2314296511186,23.8722522622657,,,,,
N/A,,Shreemasta,Mid-Western,China,859700,,34.2202379212558,82.3024402076956,,,,,
N/A,,Ängsösund,Vastmanland,Sweden,725 98,,59.5221592867948,16.8492517641542,Mälaren,,,,
N/A,,Yablonovo,Zabaykal'ye,Russia,672560,,52.2057389069372,112.761683606406,Ozero Arakhley,,,,
N/A,,Gubbagere,Karnataka,India,577136,,13.6138659296575,75.5524447664639,Bhadra Reservoir,,,,
N/A,,Tunuk,Tuva,Mongolia,85211,,48.906652952109,93.4431332594703,Airag Lake,,,,
N/A,,Smorodinka,Krasnoyarsk,Russia,668232,,67.2589316401965,92.827657911817,Ozero Agata,,,,
N/A,,Kangtuokayi,Xinjiang Uygur,China,859700,,34.0191872224248,81.6412638915729,Lumajangdong Co,,,,
N/A,,Pashkinskiye,Khanty-Mansiy,Russia,169915,,69.5150854925972,69.0822604595184,Ozero Yambuto,,,,
N/A,,Woulélé,Malampa,New Zealand,9600,,-45.5135631218664,167.544578958756,Lake Manapouri,,,,
N/A,,Dedeu,Isabel,Russia,678822,,70.5346156469177,158.912648878665,Ozero Ilirgytgyn,,,,
N/A,,Ostrovnaya,Omsk,Russia,646566,,57.4410049079739,72.1418499207364,Ozero Artevo,,,,
N/A,,Stewart,Western Australia,Australia,6436,,-29.4479263181166,120.811564626274,Lake Ballard,,,,
N/A,,Bulak,North Kazakhstan,Kazakhstan,161219,,50.1354760008202,68.3876280428756,Qypshaq Kli,,,,
N/A,,Sokhondo,Zabaykal'ye,Russia,672550,,51.9993896538179,112.528085769086,Ozero Irgen,,,,
N/A,,Kogalisamutukodihalli,Karnataka,India,413528,,15.2054927650584,76.184295445586,Tungabhadra,,,,
N/A,,Kaletie Shimazha,Xinjiang Uygur,China,859700,,35.0407779256353,81.0863660538793,Gozha Co,,,,
N/A,,Glenhope,Nelson,New Zealand,7491,,-41.8574498875231,172.643557632521,Lake Rotoroa,,,,
N/A,,Odinarskaya,Tyumen',Russia,646595,,57.5400584367538,70.4649880269778,Ozero Bolshoy Uvat,,,,
N/A,,Eastern Bush,Southland,New Zealand,9682,,-45.185688882886,167.772353543175,Lake Te Anau,,,,
N/A,,Bongri,Xizang,China,853400,,33.8824550853722,91.1942109913084,,,,,
N/A,,Lakewood,Western Australia,Australia,6434,,-29.755242466842,121.528533837392,Lake Goongarrie,,,,
N/A,,Birtaban,Aqmola,Kazakhstan,100510,,50.49621923862,69.9935708481036,Ozero Shalkar,,,,
N/A,,Lukunwod,,Russia,689417,,67.5075221455592,172.065821881736,Ozero Elgygytgyn,,,,
N/A,,Burulyatuy,Zabaykal'ye,Russia,674611,,50.4762024779751,116.317400119702,,,,,
N/A,,Poldnëvo,Tyumen',Russia,626271,,57.8282409172157,68.538677369905,Ozero Bolshoy Shishkarym,,,,
N/A,,Saint Arnaud,Nelson,New Zealand,7096,,-41.83371476399,172.840222993085,Lake Rotoiti,,,,
N/A,,Gangguocun,Xizang,China,853400,,32.4659749056146,89.9814059918881,,,,,
N/A,,Putangahau,Southland,New Zealand,9305,,-44.5136818810702,169.126452025255,Lake Wanaka,,,,
N/A,,Shiviya,Zabaykal'ye,Russia,673432,,50.4791461192464,116.351772757422,,,,,
N/A,,Utuwai,Manawatu-Wanganui,New Zealand,3385,,-38.805462003828,175.937636341703,Lake Taupo,,,,
N/A,,Palmerston,Northern Territory,Australia,0872,,-29.4458657692267,130.975910956971,,,,,
N/A,,Tavot’yakh,Khanty-Mansiy,Russia,641628,,58.9338725787222,66.8726346489163,Ozero Andreyevskoye,,,,
N/A,,Lowburn Ferry,Otago,New Zealand,9771,,-45.0424956755662,169.214823770451,Lake Dunstan,,,,
N/A,,Bogulino,Maga Buryatdan,Russia,684406,,54.820869812375,160.224679187291,Ozero Kronotskoye,,,,
N/A,,Klyuchi,Krasnoyarsk,Mongolia,81059,,48.8388020208052,97.3232851919959,Telmen Nuur,,,,
N/A,,Tawhiti,Otago,New Zealand,9330,,-44.4472949190075,169.287348204143,Lake Hawea,,,,
N/A,,Payment,Michigan,Canada,P6A 0A3,,46.4481562486708,-84.1355387563686,,,,,
N/A,,Yamki,Khanty-Mansiy,Russia,627036,,59.6321042882785,66.2814126441318,Ozero Tuman,,,,
N/A,,Abalakovo,Irkutsk,Mongolia,67241,,49.2272154865554,99.1054389994345,Sangiyn Dalay Nuur,,,,
N/A,,Danihuli,Nusa Tenggara Timur,Australia,6450,,-31.8402235793157,121.83993470756,Lake Cowan,,,,
N/A,,Podgornoye,Khabarovsk,Russia,682408,,52.068859587821,139.771540422332,,,,,
N/A,,Hamurana,Bay of Plenty,New Zealand,3010,,-38.0879018284895,176.2713074234,Lake Rotorua,,,,
N/A,,Zimnyaya Kaur’ya,Khanty-Mansiy,Russia,626073,,59.7694251535854,67.2329168363403,Ozero Yakh-Tur,,,,
N/A,,Krasnoyarovo,Zabaykal'ye,Mongolia,21031,,49.5165754235258,115.588769554721,Hh Nuur,,,,
N/A,,Siwunah,Irian Jaya Barat,Australia,5690,,-17.7875745141769,133.48949057803,,,,,
0,,Arbon,UT,United States,84307-9611,Davis,41.1840100768097,-112.576710889735,Great Salt Lake,,,,
N/A,,Cross Creek,Wellington,New Zealand,4815,,-41.2260539760289,175.223668704468,Lake Wairarapa,,,,
N/A,,Jesús María,Tamaulipas,Mexico,87580,,24.6483995993153,-97.6571867298914,Laguna Madre,,,,
0,A Ave,Sloan,CA,United States,92257-9474,Imperial,33.3055013961941,-115.756786494068,Salton Sea,,,,
N/A,,Postrer Río,Independencia,Dominican Republic,83000,,18.4838260489238,-71.6347339029901,Lago Enriquillo,,,,
0,,Jamestown,CA,United States,97635-3002,Modoc,41.9447941633815,-120.414890335764,Goose Lake,,,,
